id;id_fantoir;numero;rep;nom_voie;code_postal;code_insee;nom_commune;code_insee_ancienne_commune;nom_ancienne_commune;x;y;lon;lat;type_position;alias;nom_ld;libelle_acheminement;nom_afnor;source_position;source_nom_voie;certification_commune;cad_parcelles;geopoint
32013_3820_00003;32013_3820;3;;Rue de la République;32000;32013;Auch;;;505072.73;6286055.18;0.584269;43.646702;;;;AUCH;RUE DE LA REPUBLIQUE;inconnue;inconnue;0;;43.646702,0.584269
32013_3820_00005;32013_3820;5;;Rue de la République;32000;32013;Auch;;;505079.98;6286051.95;0.58436;43.646675;;;;AUCH;RUE DE LA REPUBLIQUE;inconnue;inconnue;0;;43.646675,0.58436
32013_3820_00007;32013_3820;7;;Rue de la République;32000;32013;Auch;;;505092.01;6286046.8;0.584511;43.646632;;;;AUCH;RUE DE LA REPUBLIQUE;inconnue;inconnue;0;;43.646632,0.584511
32013_3820_00008;32013_3820;8;;Rue de la République;32000;32013;Auch;;;505082.99;6286029.18;0.584406;43.646471;;;;AUCH;RUE DE LA REPUBLIQUE;inconnue;inconnue;0;;43.646471,0.584406
32013_3820_00001;32013_3820;1;;Rue de la République;32000;32013;Auch;;;505065.02;6286059.08;0.584172;43.646735;;;;AUCH;RUE DE LA REPUBLIQUE;inconnue;inconnue;0;;43.646735,0.584172
32013_3820_00004;32013_3820;4;;Rue de la République;32000;32013;Auch;;;505051.66;6286042.26;0.584013;43.64658;;;;AUCH;RUE DE LA REPUBLIQUE;inconnue;inconnue;0;;43.64658,0.584013
32013_3820_00004_a;32013_3820;4;a;Rue de la République;32000;32013;Auch;;;505064.39;6286041.2;0.584171;43.646574;;;;AUCH;RUE DE LA REPUBLIQUE;inconnue;inconnue;0;;43.646574,0.584171
32107_0930_00010;32107_0930;10;;Rue de la République;32100;32107;Condom;;;488745.42;6321048.89;0.367616;43.956748;;;;CONDOM;RUE DE LA REPUBLIQUE;inconnue;inconnue;0;;43.956748,0.367616
32107_0930_00011;32107_0930;11;;Rue de la République;32100;32107;Condom;;;488746.7;6321041.51;0.367635;43.956682;;;;CONDOM;RUE DE LA REPUBLIQUE;inconnue;inconnue;0;;43.956682,0.367635
32107_0930_00022;32107_0930;22;;Rue de la République;32100;32107;Condom;;;488698.59;6321031.67;0.36704;43.956579;;;;CONDOM;RUE DE LA REPUBLIQUE;inconnue;inconnue;0;;43.956579,0.36704
32107_0930_00023;32107_0930;23;;Rue de la République;32100;32107;Condom;;;488707.88;6321026.24;0.367158;43.956533;;;;CONDOM;RUE DE LA REPUBLIQUE;inconnue;inconnue;0;;43.956533,0.367158
32107_0930_00027;32107_0930;27;;Rue de la République;32100;32107;Condom;;;488686.92;6321006.82;0.366905;43.956352;;;;CONDOM;RUE DE LA REPUBLIQUE;inconnue;inconnue;0;;43.956352,0.366905
32107_0930_00033;32107_0930;33;;Rue de la République;32100;32107;Condom;;;488669.7;6320984.16;0.3667;43.956143;;;;CONDOM;RUE DE LA REPUBLIQUE;inconnue;inconnue;0;;43.956143,0.3667
32107_0930_00035;32107_0930;35;;Rue de la République;32100;32107;Condom;;;488666.73;6320979.47;0.366665;43.9561;;;;CONDOM;RUE DE LA REPUBLIQUE;inconnue;inconnue;0;;43.9561,0.366665
32107_0930_00039;32107_0930;39;;Rue de la République;32100;32107;Condom;;;488660.88;6320972.55;0.366595;43.956036;;;;CONDOM;RUE DE LA REPUBLIQUE;inconnue;inconnue;0;;43.956036,0.366595
32107_0930_00040;32107_0930;40;;Rue de la République;32100;32107;Condom;;;488665.53;6320993.97;0.366644;43.95623;;;;CONDOM;RUE DE LA REPUBLIQUE;inconnue;inconnue;0;;43.95623,0.366644
32107_0930_00041;32107_0930;41;;Rue de la République;32100;32107;Condom;;;488646.02;6320953.48;0.366418;43.95586;;;;CONDOM;RUE DE LA REPUBLIQUE;inconnue;inconnue;0;;43.95586,0.366418
32107_0930_00042;32107_0930;42;;Rue de la République;32100;32107;Condom;;;488660.21;6320988.7;0.36658;43.956181;;;;CONDOM;RUE DE LA REPUBLIQUE;inconnue;inconnue;0;;43.956181,0.36658
32107_0930_00053;32107_0930;53;;Rue de la République;32100;32107;Condom;;;488625.5;6320927.93;0.366173;43.955624;;;;CONDOM;RUE DE LA REPUBLIQUE;inconnue;inconnue;0;;43.955624,0.366173
32107_0930_00068;32107_0930;68;;Rue de la République;32100;32107;Condom;;;488595.36;6320915.48;0.365803;43.955503;;;;CONDOM;RUE DE LA REPUBLIQUE;inconnue;inconnue;0;;43.955503,0.365803
32107_0930_00082;32107_0930;82;;Rue de la République;32100;32107;Condom;;;488555.4;6320890.02;0.365316;43.955262;;;;CONDOM;RUE DE LA REPUBLIQUE;inconnue;inconnue;0;;43.955262,0.365316
32107_0930_00004;32107_0930;4;;Rue de la République;32100;32107;Condom;;;488763.74;6321051.51;0.367843;43.956777;;;;CONDOM;RUE DE LA REPUBLIQUE;inconnue;inconnue;0;;43.956777,0.367843
32107_0930_00006;32107_0930;6;;Rue de la République;32100;32107;Condom;;;488748.81;6321051.78;0.367657;43.956775;;;;CONDOM;RUE DE LA REPUBLIQUE;inconnue;inconnue;0;;43.956775,0.367657
32107_0930_00032;32107_0930;32;;Rue de la République;32100;32107;Condom;;;488676.97;6321009.48;0.36678;43.956373;;;;CONDOM;RUE DE LA REPUBLIQUE;inconnue;inconnue;0;;43.956373,0.36678
32107_0930_00038;32107_0930;38;;Rue de la République;32100;32107;Condom;;;488668.74;6320998.75;0.366682;43.956274;;;;CONDOM;RUE DE LA REPUBLIQUE;inconnue;inconnue;0;;43.956274,0.366682
32107_0930_00045;32107_0930;45;;Rue de la République;32100;32107;Condom;;;488637.99;6320943.86;0.366322;43.955771;;;;CONDOM;RUE DE LA REPUBLIQUE;inconnue;inconnue;0;;43.955771,0.366322
32107_0930_00049;32107_0930;49;;Rue de la République;32100;32107;Condom;;;488629.7;6320933.68;0.366223;43.955677;;;;CONDOM;RUE DE LA REPUBLIQUE;inconnue;inconnue;0;;43.955677,0.366223
32107_0930_00058;32107_0930;58;;Rue de la République;32100;32107;Condom;;;488619.22;6320937.14;0.366091;43.955705;;;;CONDOM;RUE DE LA REPUBLIQUE;inconnue;inconnue;0;;43.955705,0.366091
32107_0930_00060;32107_0930;60;;Rue de la République;32100;32107;Condom;;;488615.99;6320934.25;0.366052;43.955678;;;;CONDOM;RUE DE LA REPUBLIQUE;inconnue;inconnue;0;;43.955678,0.366052
32107_0930_00064;32107_0930;64;;Rue de la République;32100;32107;Condom;;;488605.03;6320923.5;0.36592;43.955578;;;;CONDOM;RUE DE LA REPUBLIQUE;inconnue;inconnue;0;;43.955578,0.36592
32107_0930_00076;32107_0930;76;;Rue de la République;32100;32107;Condom;;;488576.69;6320902.21;0.365576;43.955378;;;;CONDOM;RUE DE LA REPUBLIQUE;inconnue;inconnue;0;;43.955378,0.365576
32107_0930_00080;32107_0930;80;;Rue de la République;32100;32107;Condom;;;488532.2;6320885.35;0.365029;43.955213;;;;CONDOM;RUE DE LA REPUBLIQUE;inconnue;inconnue;0;;43.955213,0.365029
32107_0930_00007;32107_0930;7;;Rue de la République;32100;32107;Condom;;;488753.76;6321043.72;0.367722;43.956704;;;;CONDOM;RUE DE LA REPUBLIQUE;inconnue;inconnue;0;;43.956704,0.367722
32107_0930_00012;32107_0930;12;;Rue de la République;32100;32107;Condom;;;488739.7;6321048.19;0.367545;43.95674;;;;CONDOM;RUE DE LA REPUBLIQUE;inconnue;inconnue;0;;43.95674,0.367545
32107_0930_00015;32107_0930;15;;Rue de la République;32100;32107;Condom;;;488732.21;6321037.99;0.367456;43.956646;;;;CONDOM;RUE DE LA REPUBLIQUE;inconnue;inconnue;0;;43.956646,0.367456
32107_0930_00016;32107_0930;16;;Rue de la République;32100;32107;Condom;;;488723.9;6321046.61;0.367349;43.956721;;;;CONDOM;RUE DE LA REPUBLIQUE;inconnue;inconnue;0;;43.956721,0.367349
32107_0930_00019;32107_0930;19;;Rue de la République;32100;32107;Condom;;;488717.51;6321033.15;0.367275;43.956598;;;;CONDOM;RUE DE LA REPUBLIQUE;inconnue;inconnue;0;;43.956598,0.367275
32107_0930_00021;32107_0930;21;;Rue de la République;32100;32107;Condom;;;488712.5;6321029.87;0.367214;43.956567;;;;CONDOM;RUE DE LA REPUBLIQUE;inconnue;inconnue;0;;43.956567,0.367214
32107_0930_00024;32107_0930;24;;Rue de la République;32100;32107;Condom;;;488694.43;6321027.36;0.36699;43.956539;;;;CONDOM;RUE DE LA REPUBLIQUE;inconnue;inconnue;0;;43.956539,0.36699
32107_0930_00030;32107_0930;30;;Rue de la République;32100;32107;Condom;;;488682.48;6321015.75;0.366846;43.956431;;;;CONDOM;RUE DE LA REPUBLIQUE;inconnue;inconnue;0;;43.956431,0.366846
32107_0930_00043;32107_0930;43;;Rue de la République;32100;32107;Condom;;;488642.01;6320948.72;0.36637;43.955816;;;;CONDOM;RUE DE LA REPUBLIQUE;inconnue;inconnue;0;;43.955816,0.36637
32107_0930_00048;32107_0930;48;;Rue de la République;32100;32107;Condom;;;488639.42;6320960.04;0.366333;43.955917;;;;CONDOM;RUE DE LA REPUBLIQUE;inconnue;inconnue;0;;43.955917,0.366333
32107_0930_00054;32107_0930;54;;Rue de la République;32100;32107;Condom;;;488625.2;6320943.17;0.366163;43.955761;;;;CONDOM;RUE DE LA REPUBLIQUE;inconnue;inconnue;0;;43.955761,0.366163
32107_0930_00056;32107_0930;56;;Rue de la République;32100;32107;Condom;;;488622.19;6320939.71;0.366127;43.955729;;;;CONDOM;RUE DE LA REPUBLIQUE;inconnue;inconnue;0;;43.955729,0.366127
32107_0930_00062;32107_0930;62;;Rue de la République;32100;32107;Condom;;;488611.51;6320929.95;0.365998;43.955638;;;;CONDOM;RUE DE LA REPUBLIQUE;inconnue;inconnue;0;;43.955638,0.365998
32107_0930_00070;32107_0930;70;;Rue de la République;32100;32107;Condom;;;488590.01;6320911.55;0.365738;43.955466;;;;CONDOM;RUE DE LA REPUBLIQUE;inconnue;inconnue;0;;43.955466,0.365738
32107_0930_00072;32107_0930;72;;Rue de la République;32100;32107;Condom;;;488586.22;6320908.67;0.365692;43.955439;;;;CONDOM;RUE DE LA REPUBLIQUE;inconnue;inconnue;0;;43.955439,0.365692
32107_0930_00074;32107_0930;74;;Rue de la République;32100;32107;Condom;;;488581.21;6320905.17;0.365631;43.955406;;;;CONDOM;RUE DE LA REPUBLIQUE;inconnue;inconnue;0;;43.955406,0.365631
32107_0930_00046_bis;32107_0930;46;bis;Rue de la République;32100;32107;Condom;;;488649.12;6320974.06;0.366448;43.956046;;;;CONDOM;RUE DE LA REPUBLIQUE;inconnue;inconnue;0;;43.956046,0.366448
32107_0930_00004_bis;32107_0930;4;bis;Rue de la République;32100;32107;Condom;;;488753.1;6321052.64;0.36771;43.956784;;;;CONDOM;RUE DE LA REPUBLIQUE;inconnue;inconnue;0;;43.956784,0.36771
32107_0930_00001;32107_0930;1;;Rue de la République;32100;32107;Condom;;;488784.18;6321047.82;0.368099;43.95675;;;;CONDOM;RUE DE LA REPUBLIQUE;inconnue;inconnue;0;;43.95675,0.368099
32107_0930_00002;32107_0930;2;;Rue de la République;32100;32107;Condom;;;488769.54;6321051.98;0.367915;43.956783;;;;CONDOM;RUE DE LA REPUBLIQUE;inconnue;inconnue;0;;43.956783,0.367915
32107_0930_00003;32107_0930;3;;Rue de la République;32100;32107;Condom;;;488766.73;6321044.96;0.367883;43.956719;;;;CONDOM;RUE DE LA REPUBLIQUE;inconnue;inconnue;0;;43.956719,0.367883
32107_0930_00008;32107_0930;8;;Rue de la République;32100;32107;Condom;;;488749.7;6321049.53;0.367669;43.956755;;;;CONDOM;RUE DE LA REPUBLIQUE;inconnue;inconnue;0;;43.956755,0.367669
32107_0930_00009;32107_0930;9;;Rue de la République;32100;32107;Condom;;;488751.0;6321042.7;0.367688;43.956694;;;;CONDOM;RUE DE LA REPUBLIQUE;inconnue;inconnue;0;;43.956694,0.367688
32107_0930_00013;32107_0930;13;;Rue de la République;32100;32107;Condom;;;488738.32;6321040.57;0.367531;43.956671;;;;CONDOM;RUE DE LA REPUBLIQUE;inconnue;inconnue;0;;43.956671,0.367531
32107_0930_00014;32107_0930;14;;Rue de la République;32100;32107;Condom;;;488740.48;6321050.17;0.367554;43.956758;;;;CONDOM;RUE DE LA REPUBLIQUE;inconnue;inconnue;0;;43.956758,0.367554
32107_0930_00017;32107_0930;17;;Rue de la République;32100;32107;Condom;;;488724.67;6321035.91;0.367363;43.956625;;;;CONDOM;RUE DE LA REPUBLIQUE;inconnue;inconnue;0;;43.956625,0.367363
32107_0930_00018;32107_0930;18;;Rue de la République;32100;32107;Condom;;;488710.87;6321046.04;0.367187;43.956712;;;;CONDOM;RUE DE LA REPUBLIQUE;inconnue;inconnue;0;;43.956712,0.367187
32107_0930_00020;32107_0930;20;;Rue de la République;32100;32107;Condom;;;488701.22;6321036.02;0.367071;43.956619;;;;CONDOM;RUE DE LA REPUBLIQUE;inconnue;inconnue;0;;43.956619,0.367071
32107_0930_00025;32107_0930;25;;Rue de la République;32100;32107;Condom;;;488698.24;6321016.33;0.367042;43.956441;;;;CONDOM;RUE DE LA REPUBLIQUE;inconnue;inconnue;0;;43.956441,0.367042
32107_0930_00026;32107_0930;26;;Rue de la République;32100;32107;Condom;;;488690.02;6321022.95;0.366937;43.956498;;;;CONDOM;RUE DE LA REPUBLIQUE;inconnue;inconnue;0;;43.956498,0.366937
32107_0930_00034;32107_0930;34;;Rue de la République;32100;32107;Condom;;;488674.41;6321005.01;0.36675;43.956332;;;;CONDOM;RUE DE LA REPUBLIQUE;inconnue;inconnue;0;;43.956332,0.36675
32107_0930_00046;32107_0930;46;;Rue de la République;32100;32107;Condom;;;488648.28;6320972.86;0.366438;43.956035;;;;CONDOM;RUE DE LA REPUBLIQUE;inconnue;inconnue;0;;43.956035,0.366438
32107_0930_00050;32107_0930;50;;Rue de la République;32100;32107;Condom;;;488632.68;6320953.04;0.366252;43.955852;;;;CONDOM;RUE DE LA REPUBLIQUE;inconnue;inconnue;0;;43.955852,0.366252
32107_0930_00052;32107_0930;52;;Rue de la République;32100;32107;Condom;;;488628.98;6320948.16;0.366208;43.955807;;;;CONDOM;RUE DE LA REPUBLIQUE;inconnue;inconnue;0;;43.955807,0.366208
32107_0930_00066;32107_0930;66;;Rue de la République;32100;32107;Condom;;;488601.72;6320920.72;0.36588;43.955552;;;;CONDOM;RUE DE LA REPUBLIQUE;inconnue;inconnue;0;;43.955552,0.36588
32107_0930_00041_bis;32107_0930;41;bis;Rue de la République;32100;32107;Condom;;;488660.18;6320973.47;0.366586;43.956044;;;;CONDOM;RUE DE LA REPUBLIQUE;inconnue;inconnue;0;;43.956044,0.366586
32107_0930_00028;32107_0930;28;;Rue de la République;32100;32107;Condom;;;488686.69;6321019.39;0.366897;43.956465;;;;CONDOM;RUE DE LA REPUBLIQUE;inconnue;inconnue;0;;43.956465,0.366897
32107_0930_00031;32107_0930;31;;Rue de la République;32100;32107;Condom;;;488684.58;6321004.23;0.366877;43.956328;;;;CONDOM;RUE DE LA REPUBLIQUE;inconnue;inconnue;0;;43.956328,0.366877
32107_0930_00036;32107_0930;36;;Rue de la République;32100;32107;Condom;;;488671.74;6321001.99;0.366718;43.956304;;;;CONDOM;RUE DE LA REPUBLIQUE;inconnue;inconnue;0;;43.956304,0.366718
32107_0930_00037;32107_0930;37;;Rue de la République;32100;32107;Condom;;;488667.69;6320976.89;0.366678;43.956077;;;;CONDOM;RUE DE LA REPUBLIQUE;arcep;inconnue;0;;43.956077,0.366678
32107_0930_00044;32107_0930;44;;Rue de la République;32100;32107;Condom;;;488656.01;6320983.17;0.36653;43.95613;;;;CONDOM;RUE DE LA REPUBLIQUE;inconnue;inconnue;0;;43.95613,0.36653
32107_0930_00047;32107_0930;47;;Rue de la République;32100;32107;Condom;;;488634.22;6320939.2;0.366277;43.955728;;;;CONDOM;RUE DE LA REPUBLIQUE;inconnue;inconnue;0;;43.955728,0.366277
32107_0930_00078;32107_0930;78;;Rue de la République;32100;32107;Condom;;;488564.73;6320895.16;0.36543;43.955311;;;;CONDOM;RUE DE LA REPUBLIQUE;inconnue;inconnue;0;;43.955311,0.36543
32107_0930_00014_bis;32107_0930;14;bis;Rue de la République;32100;32107;Condom;;;488733.93;6321048.83;0.367473;43.956744;;;;CONDOM;RUE DE LA REPUBLIQUE;inconnue;inconnue;0;;43.956744,0.367473
32107_0930_00004_ter;32107_0930;4;ter;Rue de la République;32100;32107;Condom;;;488753.1;6321052.64;0.36771;43.956784;;;;CONDOM;RUE DE LA REPUBLIQUE;inconnue;inconnue;0;;43.956784,0.36771
32107_0930_00013_bis;32107_0930;13;bis;Rue de la République;32100;32107;Condom;;;488737.5;6321040.04;0.367521;43.956666;;;;CONDOM;RUE DE LA REPUBLIQUE;inconnue;inconnue;0;;43.956666,0.367521
32132_0840_00011;32132_0840;11;;Rue de la République;32500;32132;Fleurance;;;511965.13;6308035.67;0.661571;43.846271;;;;FLEURANCE;RUE DE LA REPUBLIQUE;inconnue;inconnue;0;;43.846271,0.661571
32132_0840_00016;32132_0840;16;;Rue de la République;32500;32132;Fleurance;;;511913.78;6307874.88;0.660992;43.844811;;;;FLEURANCE;RUE DE LA REPUBLIQUE;inconnue;inconnue;0;;43.844811,0.660992
32132_0840_00020;32132_0840;20;;Rue de la République;32500;32132;Fleurance;;;511964.31;6308016.13;0.661568;43.846095;;;;FLEURANCE;RUE DE LA REPUBLIQUE;inconnue;inconnue;0;;43.846095,0.661568
32132_0840_00021;32132_0840;21;;Rue de la République;32500;32132;Fleurance;;;511983.1;6308085.72;0.661776;43.846726;;;;FLEURANCE;RUE DE LA REPUBLIQUE;inconnue;inconnue;0;;43.846726,0.661776
32132_0840_00027;32132_0840;27;;Rue de la République;32500;32132;Fleurance;;;511993.71;6308115.09;0.661897;43.846993;;;;FLEURANCE;RUE DE LA REPUBLIQUE;inconnue;inconnue;0;;43.846993,0.661897
32132_0840_00046;32132_0840;46;;Rue de la République;32500;32132;Fleurance;;;511985.63;6308073.2;0.661812;43.846614;;;;FLEURANCE;RUE DE LA REPUBLIQUE;inconnue;inconnue;0;;43.846614,0.661812
32132_0840_00058;32132_0840;58;;Rue de la République;32500;32132;Fleurance;;;511998.96;6308110.38;0.661964;43.846952;;;;FLEURANCE;RUE DE LA REPUBLIQUE;inconnue;inconnue;0;;43.846952,0.661964
32132_0840_00059;32132_0840;59;;Rue de la République;32500;32132;Fleurance;;;512023.58;6308205.37;0.662235;43.847813;;;;FLEURANCE;RUE DE LA REPUBLIQUE;inconnue;inconnue;0;;43.847813,0.662235
32132_0840_00061;32132_0840;61;;Rue de la République;32500;32132;Fleurance;;;512026.13;6308212.85;0.662264;43.847881;;;;FLEURANCE;RUE DE LA REPUBLIQUE;inconnue;inconnue;0;;43.847881,0.662264
32132_0840_00067;32132_0840;67;;Rue de la République;32500;32132;Fleurance;;;512033.03;6308233.88;0.662342;43.848072;;;;FLEURANCE;RUE DE LA REPUBLIQUE;inconnue;inconnue;0;;43.848072,0.662342
32132_0840_00077;32132_0840;77;;Rue de la République;32500;32132;Fleurance;;;512054.23;6308300.51;0.662581;43.848677;;;;FLEURANCE;RUE DE LA REPUBLIQUE;inconnue;inconnue;0;;43.848677,0.662581
32132_0840_00078;32132_0840;78;;Rue de la République;32500;32132;Fleurance;;;512014.09;6308156.73;0.662135;43.847373;;;;FLEURANCE;RUE DE LA REPUBLIQUE;inconnue;inconnue;0;;43.847373,0.662135
32132_0840_00085;32132_0840;85;;Rue de la République;32500;32132;Fleurance;;;512060.18;6308319.23;0.662648;43.848847;;;;FLEURANCE;RUE DE LA REPUBLIQUE;inconnue;inconnue;0;;43.848847,0.662648
32132_0840_00090;32132_0840;90;;Rue de la République;32500;32132;Fleurance;;;512029.59;6308204.52;0.66231;43.847807;;;;FLEURANCE;RUE DE LA REPUBLIQUE;inconnue;inconnue;0;;43.847807,0.66231
32132_0840_00120;32132_0840;120;;Rue de la République;32500;32132;Fleurance;;;512069.99;6308332.84;0.662765;43.848972;;;;FLEURANCE;RUE DE LA REPUBLIQUE;inconnue;inconnue;0;;43.848972,0.662765
32132_0840_00082_bis;32132_0840;82;bis;Rue de la République;32500;32132;Fleurance;;;512022.99;6308177.37;0.662238;43.847561;;;;FLEURANCE;RUE DE LA REPUBLIQUE;inconnue;inconnue;0;;43.847561,0.662238
32132_0840_00020_bis;32132_0840;20;bis;Rue de la République;32500;32132;Fleurance;;;511920.08;6307892.15;0.661064;43.844968;;;;FLEURANCE;RUE DE LA REPUBLIQUE;inconnue;inconnue;0;;43.844968,0.661064
32132_0840_00003;32132_0840;3;;Rue de la République;32500;32132;Fleurance;;;511930.17;6307950.22;0.661168;43.845493;;;;FLEURANCE;RUE DE LA REPUBLIQUE;inconnue;inconnue;0;;43.845493,0.661168
32132_0840_00008;32132_0840;8;;Rue de la République;32500;32132;Fleurance;;;511959.09;6308003.05;0.661508;43.845976;;;;FLEURANCE;RUE DE LA REPUBLIQUE;inconnue;inconnue;0;;43.845976,0.661508
32132_0840_00009;32132_0840;9;;Rue de la République;32500;32132;Fleurance;;;511963.91;6308032.48;0.661557;43.846242;;;;FLEURANCE;RUE DE LA REPUBLIQUE;inconnue;inconnue;0;;43.846242,0.661557
32132_0840_00010;32132_0840;10;;Rue de la République;32500;32132;Fleurance;;;511906.8;6307851.19;0.660914;43.844596;;;;FLEURANCE;RUE DE LA REPUBLIQUE;inconnue;inconnue;0;;43.844596,0.660914
32132_0840_00024;32132_0840;24;;Rue de la République;32500;32132;Fleurance;;;511931.16;6307926.73;0.661189;43.845282;;;;FLEURANCE;RUE DE LA REPUBLIQUE;inconnue;inconnue;0;;43.845282,0.661189
32132_0840_00025;32132_0840;25;;Rue de la République;32500;32132;Fleurance;;;511991.94;6308109.58;0.661877;43.846943;;;;FLEURANCE;RUE DE LA REPUBLIQUE;inconnue;inconnue;0;;43.846943,0.661877
32132_0840_00038;32132_0840;38;;Rue de la République;32500;32132;Fleurance;;;511975.04;6308044.27;0.661691;43.846351;;;;FLEURANCE;RUE DE LA REPUBLIQUE;inconnue;inconnue;0;;43.846351,0.661691
32132_0840_00042;32132_0840;42;;Rue de la République;32500;32132;Fleurance;;;511981.7;6308062.64;0.661767;43.846518;;;;FLEURANCE;RUE DE LA REPUBLIQUE;inconnue;inconnue;0;;43.846518,0.661767
32132_0840_00049;32132_0840;49;;Rue de la République;32500;32132;Fleurance;;;512016.24;6308183.13;0.662152;43.847611;;;;FLEURANCE;RUE DE LA REPUBLIQUE;inconnue;inconnue;0;;43.847611,0.662152
32132_0840_00057;32132_0840;57;;Rue de la République;32500;32132;Fleurance;;;512022.16;6308200.96;0.662219;43.847773;;;;FLEURANCE;RUE DE LA REPUBLIQUE;inconnue;inconnue;0;;43.847773,0.662219
32132_0840_00062;32132_0840;62;;Rue de la République;32500;32132;Fleurance;;;512002.21;6308119.62;0.662001;43.847036;;;;FLEURANCE;RUE DE LA REPUBLIQUE;inconnue;inconnue;0;;43.847036,0.662001
32132_0840_00063;32132_0840;63;;Rue de la République;32500;32132;Fleurance;;;512025.69;6308214.09;0.662258;43.847892;;;;FLEURANCE;RUE DE LA REPUBLIQUE;inconnue;inconnue;0;;43.847892,0.662258
32132_0840_00065;32132_0840;65;;Rue de la République;32500;32132;Fleurance;;;512028.27;6308219.68;0.662288;43.847943;;;;FLEURANCE;RUE DE LA REPUBLIQUE;inconnue;inconnue;0;;43.847943,0.662288
32132_0840_00074;32132_0840;74;;Rue de la République;32500;32132;Fleurance;;;512012.52;6308147.11;0.662119;43.847286;;;;FLEURANCE;RUE DE LA REPUBLIQUE;inconnue;inconnue;0;;43.847286,0.662119
32132_0840_00079;32132_0840;79;;Rue de la République;32500;32132;Fleurance;;;512055.83;6308305.47;0.662599;43.848722;;;;FLEURANCE;RUE DE LA REPUBLIQUE;inconnue;inconnue;0;;43.848722,0.662599
32132_0840_00080;32132_0840;80;;Rue de la République;32500;32132;Fleurance;;;512019.6;6308174.36;0.662197;43.847533;;;;FLEURANCE;RUE DE LA REPUBLIQUE;inconnue;inconnue;0;;43.847533,0.662197
32132_0840_00081;32132_0840;81;;Rue de la République;32500;32132;Fleurance;;;512058.84;6308314.71;0.662633;43.848806;;;;FLEURANCE;RUE DE LA REPUBLIQUE;inconnue;inconnue;0;;43.848806,0.662633
32132_0840_00100;32132_0840;100;;Rue de la République;32500;32132;Fleurance;;;512043.37;6308246.25;0.662466;43.848186;;;;FLEURANCE;RUE DE LA REPUBLIQUE;inconnue;inconnue;0;;43.848186,0.662466
32132_0840_00108;32132_0840;108;;Rue de la République;32500;32132;Fleurance;;;512051.22;6308269.58;0.662555;43.848398;;;;FLEURANCE;RUE DE LA REPUBLIQUE;inconnue;inconnue;0;;43.848398,0.662555
32132_0840_00116;32132_0840;116;;Rue de la République;32500;32132;Fleurance;;;512067.28;6308322.69;0.662735;43.84888;;;;FLEURANCE;RUE DE LA REPUBLIQUE;inconnue;inconnue;0;;43.84888,0.662735
32132_0840_00118;32132_0840;118;;Rue de la République;32500;32132;Fleurance;;;512068.3;6308327.22;0.662746;43.848921;;;;FLEURANCE;RUE DE LA REPUBLIQUE;inconnue;inconnue;0;;43.848921,0.662746
32132_0840_00091_bis;32132_0840;91;bis;Rue de la République;32500;32132;Fleurance;;;512067.51;6308344.25;0.66273;43.849074;;;;FLEURANCE;RUE DE LA REPUBLIQUE;inconnue;inconnue;0;;43.849074,0.66273
32132_0840_00001_ter;32132_0840;1;ter;Rue de la République;32500;32132;Fleurance;;;511921.09;6307923.58;0.661065;43.845251;;;;FLEURANCE;RUE DE LA REPUBLIQUE;inconnue;inconnue;0;;43.845251,0.661065
32132_0840_00003_ter;32132_0840;3;ter;Rue de la République;32500;32132;Fleurance;;;511939.58;6307974.51;0.661276;43.845714;;;;FLEURANCE;RUE DE LA REPUBLIQUE;inconnue;inconnue;0;;43.845714,0.661276
32132_0840_00007;32132_0840;7;;Rue de la République;32500;32132;Fleurance;;;511961.12;6308025.34;0.661525;43.846177;;;;FLEURANCE;RUE DE LA REPUBLIQUE;inconnue;inconnue;0;;43.846177,0.661525
32132_0840_00019;32132_0840;19;;Rue de la République;32500;32132;Fleurance;;;511979.51;6308075.6;0.661735;43.846634;;;;FLEURANCE;RUE DE LA REPUBLIQUE;inconnue;inconnue;0;;43.846634,0.661735
32132_0840_00026;32132_0840;26;;Rue de la République;32500;32132;Fleurance;;;511933.64;6307931.55;0.661218;43.845326;;;;FLEURANCE;RUE DE LA REPUBLIQUE;inconnue;inconnue;0;;43.845326,0.661218
32132_0840_00034;32132_0840;34;;Rue de la République;32500;32132;Fleurance;;;511965.69;6308021.98;0.661583;43.846148;;;;FLEURANCE;RUE DE LA REPUBLIQUE;inconnue;inconnue;0;;43.846148,0.661583
32132_0840_00035;32132_0840;35;;Rue de la République;32500;32132;Fleurance;;;512001.04;6308137.0;0.66198;43.847192;;;;FLEURANCE;RUE DE LA REPUBLIQUE;inconnue;inconnue;0;;43.847192,0.66198
32132_0840_00048;32132_0840;48;;Rue de la République;32500;32132;Fleurance;;;511987.82;6308079.36;0.661837;43.84667;;;;FLEURANCE;RUE DE LA REPUBLIQUE;inconnue;inconnue;0;;43.84667,0.661837
32132_0840_00051;32132_0840;51;;Rue de la République;32500;32132;Fleurance;;;512017.39;6308186.76;0.662165;43.847644;;;;FLEURANCE;RUE DE LA REPUBLIQUE;inconnue;inconnue;0;;43.847644,0.662165
32132_0840_00054;32132_0840;54;;Rue de la République;32500;32132;Fleurance;;;511995.8;6308101.35;0.661928;43.84687;;;;FLEURANCE;RUE DE LA REPUBLIQUE;inconnue;inconnue;0;;43.84687,0.661928
32132_0840_00055;32132_0840;55;;Rue de la République;32500;32132;Fleurance;;;512020.57;6308196.34;0.662201;43.847731;;;;FLEURANCE;RUE DE LA REPUBLIQUE;inconnue;inconnue;0;;43.847731,0.662201
32132_0840_00066;32132_0840;66;;Rue de la République;32500;32132;Fleurance;;;512005.2;6308128.31;0.662035;43.847115;;;;FLEURANCE;RUE DE LA REPUBLIQUE;inconnue;inconnue;0;;43.847115,0.662035
32132_0840_00069;32132_0840;69;;Rue de la République;32500;32132;Fleurance;;;512038.3;6308248.73;0.662402;43.848207;;;;FLEURANCE;RUE DE LA REPUBLIQUE;inconnue;inconnue;0;;43.848207,0.662402
32132_0840_00076;32132_0840;76;;Rue de la République;32500;32132;Fleurance;;;512012.3;6308150.67;0.662115;43.847318;;;;FLEURANCE;RUE DE LA REPUBLIQUE;inconnue;inconnue;0;;43.847318,0.662115
32132_0840_00087;32132_0840;87;;Rue de la République;32500;32132;Fleurance;;;512061.77;6308326.75;0.662665;43.848915;;;;FLEURANCE;RUE DE LA REPUBLIQUE;inconnue;inconnue;0;;43.848915,0.662665
32132_0840_00088;32132_0840;88;;Rue de la République;32500;32132;Fleurance;;;512029.67;6308196.63;0.662314;43.847736;;;;FLEURANCE;RUE DE LA REPUBLIQUE;inconnue;inconnue;0;;43.847736,0.662314
32132_0840_00091;32132_0840;91;;Rue de la République;32500;32132;Fleurance;;;512066.48;6308344.62;0.662717;43.849077;;;;FLEURANCE;RUE DE LA REPUBLIQUE;inconnue;inconnue;0;;43.849077,0.662717
32132_0840_00096;32132_0840;96;;Rue de la République;32500;32132;Fleurance;;;512032.5;6308213.33;0.662343;43.847887;;;;FLEURANCE;RUE DE LA REPUBLIQUE;inconnue;inconnue;0;;43.847887,0.662343
32132_0840_00102;32132_0840;102;;Rue de la République;32500;32132;Fleurance;;;512045.4;6308252.19;0.662489;43.84824;;;;FLEURANCE;RUE DE LA REPUBLIQUE;inconnue;inconnue;0;;43.84824,0.662489
32132_0840_00112;32132_0840;112;;Rue de la République;32500;32132;Fleurance;;;512057.44;6308281.07;0.662628;43.848503;;;;FLEURANCE;RUE DE LA REPUBLIQUE;inconnue;inconnue;0;;43.848503,0.662628
32132_0840_00114;32132_0840;114;;Rue de la République;32500;32132;Fleurance;;;512062.28;6308305.94;0.662679;43.848728;;;;FLEURANCE;RUE DE LA REPUBLIQUE;inconnue;inconnue;0;;43.848728,0.662679
32132_0840_00114_bis;32132_0840;114;bis;Rue de la République;32500;32132;Fleurance;;;512063.97;6308311.56;0.662698;43.848779;;;;FLEURANCE;RUE DE LA REPUBLIQUE;inconnue;inconnue;0;;43.848779,0.662698
32132_0840_00098_bis;32132_0840;98;bis;Rue de la République;32500;32132;Fleurance;;;512041.26;6308240.19;0.662442;43.848131;;;;FLEURANCE;RUE DE LA REPUBLIQUE;inconnue;inconnue;0;;43.848131,0.662442
32132_0840_00019_bis;32132_0840;19;bis;Rue de la République;32500;32132;Fleurance;;;511980.87;6308083.56;0.661749;43.846706;;;;FLEURANCE;RUE DE LA REPUBLIQUE;inconnue;inconnue;0;;43.846706,0.661749
32132_0840_00114_ter;32132_0840;114;ter;Rue de la République;32500;32132;Fleurance;;;512065.58;6308316.85;0.662716;43.848827;;;;FLEURANCE;RUE DE LA REPUBLIQUE;inconnue;inconnue;0;;43.848827,0.662716
32132_0840_00013;32132_0840;13;;Rue de la République;32500;32132;Fleurance;;;511967.23;6308041.61;0.661595;43.846325;;;;FLEURANCE;RUE DE LA REPUBLIQUE;inconnue;inconnue;0;;43.846325,0.661595
32132_0840_00015;32132_0840;15;;Rue de la République;32500;32132;Fleurance;;;511967.9;6308050.37;0.6616;43.846404;;;;FLEURANCE;RUE DE LA REPUBLIQUE;inconnue;inconnue;0;;43.846404,0.6616
32132_0840_00023;32132_0840;23;;Rue de la République;32500;32132;Fleurance;;;511989.99;6308103.75;0.661855;43.84689;;;;FLEURANCE;RUE DE LA REPUBLIQUE;inconnue;inconnue;0;;43.84689,0.661855
32132_0840_00037;32132_0840;37;;Rue de la République;32500;32132;Fleurance;;;512002.54;6308141.51;0.661997;43.847233;;;;FLEURANCE;RUE DE LA REPUBLIQUE;inconnue;inconnue;0;;43.847233,0.661997
32132_0840_00041;32132_0840;41;;Rue de la République;32500;32132;Fleurance;;;512005.28;6308149.88;0.662028;43.847309;;;;FLEURANCE;RUE DE LA REPUBLIQUE;inconnue;inconnue;0;;43.847309,0.662028
32132_0840_00043;32132_0840;43;;Rue de la République;32500;32132;Fleurance;;;512012.8;6308172.89;0.662113;43.847518;;;;FLEURANCE;RUE DE LA REPUBLIQUE;inconnue;inconnue;0;;43.847518,0.662113
32132_0840_00045;32132_0840;45;;Rue de la République;32500;32132;Fleurance;;;512014.1;6308178.85;0.662127;43.847572;;;;FLEURANCE;RUE DE LA REPUBLIQUE;inconnue;inconnue;0;;43.847572,0.662127
32132_0840_00050;32132_0840;50;;Rue de la République;32500;32132;Fleurance;;;511989.5;6308084.42;0.661856;43.846716;;;;FLEURANCE;RUE DE LA REPUBLIQUE;inconnue;inconnue;0;;43.846716,0.661856
32132_0840_00052;32132_0840;52;;Rue de la République;32500;32132;Fleurance;;;511991.34;6308089.37;0.661877;43.846761;;;;FLEURANCE;RUE DE LA REPUBLIQUE;inconnue;inconnue;0;;43.846761,0.661877
32132_0840_00064;32132_0840;64;;Rue de la République;32500;32132;Fleurance;;;512003.88;6308124.46;0.66202;43.84708;;;;FLEURANCE;RUE DE LA REPUBLIQUE;inconnue;inconnue;0;;43.84708,0.66202
32132_0840_00073;32132_0840;73;;Rue de la République;32500;32132;Fleurance;;;512041.26;6308280.99;0.662427;43.848498;;;;FLEURANCE;RUE DE LA REPUBLIQUE;arcep;inconnue;0;;43.848498,0.662427
32132_0840_00075;32132_0840;75;;Rue de la République;32500;32132;Fleurance;;;512050.94;6308289.71;0.662544;43.848579;;;;FLEURANCE;RUE DE LA REPUBLIQUE;inconnue;inconnue;0;;43.848579,0.662544
32132_0840_00083;32132_0840;83;;Rue de la République;32500;32132;Fleurance;;;512060.71;6308321.11;0.662654;43.848864;;;;FLEURANCE;RUE DE LA REPUBLIQUE;inconnue;inconnue;0;;43.848864,0.662654
32132_0840_00084;32132_0840;84;;Rue de la République;32500;32132;Fleurance;;;512025.07;6308190.65;0.662259;43.847681;;;;FLEURANCE;RUE DE LA REPUBLIQUE;inconnue;inconnue;0;;43.847681,0.662259
32132_0840_00086;32132_0840;86;;Rue de la République;32500;32132;Fleurance;;;512029.67;6308196.63;0.662314;43.847736;;;;FLEURANCE;RUE DE LA REPUBLIQUE;inconnue;inconnue;0;;43.847736,0.662314
32132_0840_00093;32132_0840;93;;Rue de la République;32500;32132;Fleurance;;;512069.23;6308353.32;0.662748;43.849156;;;;FLEURANCE;RUE DE LA REPUBLIQUE;inconnue;inconnue;0;;43.849156,0.662748
32132_0840_00094;32132_0840;94;;Rue de la République;32500;32132;Fleurance;;;512031.0;6308208.93;0.662326;43.847847;;;;FLEURANCE;RUE DE LA REPUBLIQUE;inconnue;inconnue;0;;43.847847,0.662326
32132_0840_00098;32132_0840;98;;Rue de la République;32500;32132;Fleurance;;;512034.44;6308219.05;0.662365;43.847939;;;;FLEURANCE;RUE DE LA REPUBLIQUE;inconnue;inconnue;0;;43.847939,0.662365
32132_0840_00104;32132_0840;104;;Rue de la République;32500;32132;Fleurance;;;512047.07;6308257.03;0.662508;43.848284;;;;FLEURANCE;RUE DE LA REPUBLIQUE;inconnue;inconnue;0;;43.848284,0.662508
32132_0840_00106;32132_0840;106;;Rue de la République;32500;32132;Fleurance;;;512049.2;6308263.64;0.662532;43.848344;;;;FLEURANCE;RUE DE LA REPUBLIQUE;inconnue;inconnue;0;;43.848344,0.662532
32132_0840_00080_bis;32132_0840;80;bis;Rue de la République;32500;32132;Fleurance;;;512021.71;6308180.3;0.662221;43.847587;;;;FLEURANCE;RUE DE LA REPUBLIQUE;inconnue;inconnue;0;;43.847587,0.662221
32132_0840_00041_bis;32132_0840;41;bis;Rue de la République;32500;32132;Fleurance;;;512006.51;6308153.29;0.662042;43.84734;;;;FLEURANCE;RUE DE LA REPUBLIQUE;inconnue;inconnue;0;;43.84734,0.662042
32132_0840_00112_bis;32132_0840;112;bis;Rue de la République;32500;32132;Fleurance;;;512060.01;6308300.01;0.662653;43.848674;;;;FLEURANCE;RUE DE LA REPUBLIQUE;inconnue;inconnue;0;;43.848674,0.662653
32132_0840_00001;32132_0840;1;;Rue de la République;32500;32132;Fleurance;;;511908.8;6307888.93;0.660925;43.844936;;;;FLEURANCE;RUE DE LA REPUBLIQUE;inconnue;inconnue;0;;43.844936,0.660925
32132_0840_00005;32132_0840;5;;Rue de la République;32500;32132;Fleurance;;;511957.88;6308016.54;0.661488;43.846097;;;;FLEURANCE;RUE DE LA REPUBLIQUE;inconnue;inconnue;0;;43.846097,0.661488
32132_0840_00012;32132_0840;12;;Rue de la République;32500;32132;Fleurance;;;511909.37;6307861.78;0.660942;43.844692;;;;FLEURANCE;RUE DE LA REPUBLIQUE;inconnue;inconnue;0;;43.844692,0.660942
32132_0840_00014;32132_0840;14;;Rue de la République;32500;32132;Fleurance;;;511920.96;6307867.44;0.661084;43.844746;;;;FLEURANCE;RUE DE LA REPUBLIQUE;arcep;inconnue;0;;43.844746,0.661084
32132_0840_00017;32132_0840;17;;Rue de la République;32500;32132;Fleurance;;;511974.78;6308062.73;0.661681;43.846517;;;;FLEURANCE;RUE DE LA REPUBLIQUE;inconnue;inconnue;0;;43.846517,0.661681
32132_0840_00018;32132_0840;18;;Rue de la République;32500;32132;Fleurance;;;511915.71;6307880.38;0.661014;43.844861;;;;FLEURANCE;RUE DE LA REPUBLIQUE;inconnue;inconnue;0;;43.844861,0.661014
32132_0840_00028;32132_0840;28;;Rue de la République;32500;32132;Fleurance;;;511942.24;6307958.2;0.661315;43.845568;;;;FLEURANCE;RUE DE LA REPUBLIQUE;inconnue;inconnue;0;;43.845568,0.661315
32132_0840_00031;32132_0840;31;;Rue de la République;32500;32132;Fleurance;;;511996.88;6308124.45;0.661933;43.847078;;;;FLEURANCE;RUE DE LA REPUBLIQUE;inconnue;inconnue;0;;43.847078,0.661933
32132_0840_00032;32132_0840;32;;Rue de la République;32500;32132;Fleurance;;;511957.87;6308002.65;0.661493;43.845972;;;;FLEURANCE;RUE DE LA REPUBLIQUE;inconnue;inconnue;0;;43.845972,0.661493
32132_0840_00033;32132_0840;33;;Rue de la République;32500;32132;Fleurance;;;511999.53;6308132.37;0.661963;43.84715;;;;FLEURANCE;RUE DE LA REPUBLIQUE;inconnue;inconnue;0;;43.84715,0.661963
32132_0840_00039;32132_0840;39;;Rue de la République;32500;32132;Fleurance;;;512003.86;6308145.58;0.662012;43.84727;;;;FLEURANCE;RUE DE LA REPUBLIQUE;inconnue;inconnue;0;;43.84727,0.662012
32132_0840_00040;32132_0840;40;;Rue de la République;32500;32132;Fleurance;;;511978.69;6308056.17;0.661732;43.846459;;;;FLEURANCE;RUE DE LA REPUBLIQUE;inconnue;inconnue;0;;43.846459,0.661732
32132_0840_00044;32132_0840;44;;Rue de la République;32500;32132;Fleurance;;;511983.27;6308067.04;0.661785;43.846558;;;;FLEURANCE;RUE DE LA REPUBLIQUE;inconnue;inconnue;0;;43.846558,0.661785
32132_0840_00053;32132_0840;53;;Rue de la République;32500;32132;Fleurance;;;512018.98;6308191.38;0.662183;43.847686;;;;FLEURANCE;RUE DE LA REPUBLIQUE;inconnue;inconnue;0;;43.847686,0.662183
32132_0840_00060;32132_0840;60;;Rue de la République;32500;32132;Fleurance;;;512000.72;6308115.55;0.661984;43.846999;;;;FLEURANCE;RUE DE LA REPUBLIQUE;inconnue;inconnue;0;;43.846999,0.661984
32132_0840_00068;32132_0840;68;;Rue de la République;32500;32132;Fleurance;;;512006.19;6308131.84;0.662046;43.847147;;;;FLEURANCE;RUE DE LA REPUBLIQUE;inconnue;inconnue;0;;43.847147,0.662046
32132_0840_00071;32132_0840;71;;Rue de la République;32500;32132;Fleurance;;;512044.8;6308269.88;0.662475;43.848399;;;;FLEURANCE;RUE DE LA REPUBLIQUE;inconnue;inconnue;0;;43.848399,0.662475
32132_0840_00072;32132_0840;72;;Rue de la République;32500;32132;Fleurance;;;512009.63;6308142.08;0.662085;43.84724;;;;FLEURANCE;RUE DE LA REPUBLIQUE;inconnue;inconnue;0;;43.84724,0.662085
32132_0840_00082;32132_0840;82;;Rue de la République;32500;32132;Fleurance;;;512023.57;6308186.24;0.662242;43.847641;;;;FLEURANCE;RUE DE LA REPUBLIQUE;inconnue;inconnue;0;;43.847641,0.662242
32132_0840_00089;32132_0840;89;;Rue de la République;32500;32132;Fleurance;;;512064.12;6308335.46;0.662691;43.848994;;;;FLEURANCE;RUE DE LA REPUBLIQUE;inconnue;inconnue;0;;43.848994,0.662691
32149_0096_00003;32149_0096;3;;Rue de la République;32330;32149;Gondrin;;;477895.24;6312852.96;0.236096;43.879696;;;;GONDRIN;RUE DE LA REPUBLIQUE;commune;commune;0;;43.879696,0.236096
32149_0096_00004;32149_0096;4;;Rue de la République;32330;32149;Gondrin;;;477917.47;6312840.28;0.236378;43.879589;;;;GONDRIN;RUE DE LA REPUBLIQUE;commune;commune;0;;43.879589,0.236378
32149_0096_00002;32149_0096;2;;Rue de la République;32330;32149;Gondrin;;;477940.96;6312835.9;0.236672;43.879557;;;;GONDRIN;RUE DE LA REPUBLIQUE;commune;commune;0;;43.879557,0.236672
32149_0096_00005;32149_0096;5;;Rue de la République;32330;32149;Gondrin;;;477890.91;6312841.99;0.236047;43.879596;;;;GONDRIN;RUE DE LA REPUBLIQUE;commune;commune;0;;43.879596,0.236047
32149_0096_00001;32149_0096;1;;Rue de la République;32330;32149;Gondrin;;;477919.39;6312851.33;0.236397;43.879689;;;;GONDRIN;RUE DE LA REPUBLIQUE;commune;commune;0;;43.879689,0.236397
32160_1120_00002;32160_1120;2;;Rue de la République;32600;32160;L'Isle-Jourdain;;;545152.69;6281295.73;1.082191;43.613788;;;;L ISLE JOURDAIN;RUE DE LA REPUBLIQUE;inconnue;inconnue;0;;43.613788,1.082191
32160_1120_00014;32160_1120;14;;Rue de la République;32600;32160;L'Isle-Jourdain;;;545138.62;6281258.5;1.082028;43.61345;;;;L ISLE JOURDAIN;RUE DE LA REPUBLIQUE;inconnue;inconnue;0;;43.61345,1.082028
32160_1120_00018;32160_1120;18;;Rue de la République;32600;32160;L'Isle-Jourdain;;;545135.52;6281250.34;1.081992;43.613376;;;;L ISLE JOURDAIN;RUE DE LA REPUBLIQUE;inconnue;inconnue;0;;43.613376,1.081992
32160_1120_00026;32160_1120;26;;Rue de la République;32600;32160;L'Isle-Jourdain;;;545093.46;6281161.87;1.081498;43.612571;;;;L ISLE JOURDAIN;RUE DE LA REPUBLIQUE;inconnue;inconnue;0;;43.612571,1.081498
32160_1120_00004;32160_1120;4;;Rue de la République;32600;32160;L'Isle-Jourdain;;;545152.38;6281292.85;1.082188;43.613762;;;;L ISLE JOURDAIN;RUE DE LA REPUBLIQUE;inconnue;inconnue;0;;43.613762,1.082188
32160_1120_00009;32160_1120;9;;Rue de la République;32600;32160;L'Isle-Jourdain;;;545133.72;6281263.06;1.081966;43.61349;;;;L ISLE JOURDAIN;RUE DE LA REPUBLIQUE;inconnue;inconnue;0;;43.61349,1.081966
32160_1120_00010;32160_1120;10;;Rue de la République;32600;32160;L'Isle-Jourdain;;;545143.83;6281270.26;1.082089;43.613557;;;;L ISLE JOURDAIN;RUE DE LA REPUBLIQUE;inconnue;inconnue;0;;43.613557,1.082089
32160_1120_00011;32160_1120;11;;Rue de la République;32600;32160;L'Isle-Jourdain;;;545128.36;6281255.08;1.081902;43.613417;;;;L ISLE JOURDAIN;RUE DE LA REPUBLIQUE;inconnue;inconnue;0;;43.613417,1.081902
32160_1120_00019;32160_1120;19;;Rue de la République;32600;32160;L'Isle-Jourdain;;;545097.79;6281183.89;1.081545;43.61277;;;;L ISLE JOURDAIN;RUE DE LA REPUBLIQUE;inconnue;inconnue;0;;43.61277,1.081545
32160_1120_00023;32160_1120;23;;Rue de la République;32600;32160;L'Isle-Jourdain;;;545090.79;6281168.39;1.081463;43.612629;;;;L ISLE JOURDAIN;RUE DE LA REPUBLIQUE;inconnue;inconnue;0;;43.612629,1.081463
32160_1120_00024;32160_1120;24;;Rue de la République;32600;32160;L'Isle-Jourdain;;;545097.5;6281168.33;1.081546;43.61263;;;;L ISLE JOURDAIN;RUE DE LA REPUBLIQUE;inconnue;inconnue;0;;43.61263,1.081546
32160_1120_00003;32160_1120;3;;Rue de la République;32600;32160;L'Isle-Jourdain;;;545145.4;6281291.35;1.082102;43.613747;;;;L ISLE JOURDAIN;RUE DE LA REPUBLIQUE;inconnue;inconnue;0;;43.613747,1.082102
32160_1120_00006;32160_1120;6;;Rue de la République;32600;32160;L'Isle-Jourdain;;;545148.21;6281284.17;1.082139;43.613683;;;;L ISLE JOURDAIN;RUE DE LA REPUBLIQUE;inconnue;inconnue;0;;43.613683,1.082139
32160_1120_00012;32160_1120;12;;Rue de la République;32600;32160;L'Isle-Jourdain;;;545140.91;6281262.78;1.082055;43.613489;;;;L ISLE JOURDAIN;RUE DE LA REPUBLIQUE;inconnue;inconnue;0;;43.613489,1.082055
32160_1120_00013;32160_1120;13;;Rue de la République;32600;32160;L'Isle-Jourdain;;;545130.52;6281254.25;1.081929;43.61341;;;;L ISLE JOURDAIN;RUE DE LA REPUBLIQUE;inconnue;inconnue;0;;43.61341,1.081929
32160_1120_00016;32160_1120;16;;Rue de la République;32600;32160;L'Isle-Jourdain;;;545136.89;6281253.54;1.082008;43.613405;;;;L ISLE JOURDAIN;RUE DE LA REPUBLIQUE;inconnue;inconnue;0;;43.613405,1.082008
32160_1120_00021;32160_1120;21;;Rue de la République;32600;32160;L'Isle-Jourdain;;;545096.2;6281178.15;1.081527;43.612718;;;;L ISLE JOURDAIN;RUE DE LA REPUBLIQUE;inconnue;inconnue;0;;43.612718,1.081527
32160_1120_00025;32160_1120;25;;Rue de la République;32600;32160;L'Isle-Jourdain;;;545083.89;6281156.66;1.081381;43.612522;;;;L ISLE JOURDAIN;RUE DE LA REPUBLIQUE;inconnue;inconnue;0;;43.612522,1.081381
32160_1120_00017_bis;32160_1120;17;bis;Rue de la République;32600;32160;L'Isle-Jourdain;;;545106.2;6281197.47;1.081645;43.612894;;;;L ISLE JOURDAIN;RUE DE LA REPUBLIQUE;inconnue;inconnue;0;;43.612894,1.081645
32160_1120_00005;32160_1120;5;;Rue de la République;32600;32160;L'Isle-Jourdain;;;545140.61;6281280.68;1.082046;43.61365;;;;L ISLE JOURDAIN;RUE DE LA REPUBLIQUE;inconnue;inconnue;0;;43.61365,1.082046
32160_1120_00007;32160_1120;7;;Rue de la République;32600;32160;L'Isle-Jourdain;;;545135.79;6281268.35;1.08199;43.613538;;;;L ISLE JOURDAIN;RUE DE LA REPUBLIQUE;inconnue;inconnue;0;;43.613538,1.08199
32160_1120_00008;32160_1120;8;;Rue de la République;32600;32160;L'Isle-Jourdain;;;545145.38;6281277.34;1.082106;43.613621;;;;L ISLE JOURDAIN;RUE DE LA REPUBLIQUE;inconnue;inconnue;0;;43.613621,1.082106
32160_1120_00017;32160_1120;17;;Rue de la République;32600;32160;L'Isle-Jourdain;;;545100.53;6281186.71;1.081578;43.612796;;;;L ISLE JOURDAIN;RUE DE LA REPUBLIQUE;inconnue;inconnue;0;;43.612796,1.081578
32160_1120_00020;32160_1120;20;;Rue de la République;32600;32160;L'Isle-Jourdain;;;545098.2;6281167.54;1.081555;43.612623;;;;L ISLE JOURDAIN;RUE DE LA REPUBLIQUE;inconnue;inconnue;0;;43.612623,1.081555
32160_1120_00027;32160_1120;27;;Rue de la République;32600;32160;L'Isle-Jourdain;;;545078.4;6281147.01;1.081316;43.612434;;;;L ISLE JOURDAIN;RUE DE LA REPUBLIQUE;inconnue;inconnue;0;;43.612434,1.081316
32160_1120_00028;32160_1120;28;;Rue de la République;32600;32160;L'Isle-Jourdain;;;545087.24;6281151.69;1.081424;43.612478;;;;L ISLE JOURDAIN;RUE DE LA REPUBLIQUE;inconnue;inconnue;0;;43.612478,1.081424
32160_1120_00001;32160_1120;1;;Rue de la République;32600;32160;L'Isle-Jourdain;;;545127.57;6281252.65;1.081893;43.613395;;;;L ISLE JOURDAIN;RUE DE LA REPUBLIQUE;inconnue;inconnue;0;;43.613395,1.081893
32160_1120_00022;32160_1120;22;;Rue de la République;32600;32160;L'Isle-Jourdain;;;545101.3;6281175.25;1.081591;43.612693;;;;L ISLE JOURDAIN;RUE DE LA REPUBLIQUE;inconnue;inconnue;0;;43.612693,1.081591
32160_1120_00030;32160_1120;30;;Rue de la République;32600;32160;L'Isle-Jourdain;;;545082.64;6281141.79;1.08137;43.612388;;;;L ISLE JOURDAIN;RUE DE LA REPUBLIQUE;inconnue;inconnue;0;;43.612388,1.08137
32160_1120_00032;32160_1120;32;;Rue de la République;32600;32160;L'Isle-Jourdain;;;545077.72;6281132.46;1.081312;43.612303;;;;L ISLE JOURDAIN;RUE DE LA REPUBLIQUE;inconnue;inconnue;0;;43.612303,1.081312
32160_1120_00034;32160_1120;34;;Rue de la République;32600;32160;L'Isle-Jourdain;;;545072.28;6281121.36;1.081248;43.612202;;;;L ISLE JOURDAIN;RUE DE LA REPUBLIQUE;inconnue;inconnue;0;;43.612202,1.081248
32160_1120_00036;32160_1120;36;;Rue de la République;32600;32160;L'Isle-Jourdain;;;545098.2;6281167.54;1.081555;43.612623;;;;L ISLE JOURDAIN;RUE DE LA REPUBLIQUE;inconnue;inconnue;0;;43.612623,1.081555
32160_1120_00024_bis;32160_1120;24;bis;Rue de la République;32600;32160;L'Isle-Jourdain;;;545098.2;6281167.54;1.081555;43.612623;;;;L ISLE JOURDAIN;RUE DE LA REPUBLIQUE;inconnue;inconnue;0;;43.612623,1.081555
32213_0440_00012;32213_0440;12;;Rue de la République;32220;32213;Lombez;;;530913.31;6266283.53;0.910831;43.475512;entrée;;;LOMBEZ;RUE DE LA REPUBLIQUE;commune;commune;1;32213000AB0166;43.475512,0.910831
32213_0440_00024_ter;32213_0440;24;ter;Rue de la République;32220;32213;Lombez;;;530860.03;6266286.61;0.910172;43.475527;entrée;;;LOMBEZ;RUE DE LA REPUBLIQUE;commune;commune;1;32213000AB0158;43.475527,0.910172
32213_0440_00001;32213_0440;1;;Rue de la République;32220;32213;Lombez;;;530914.83;6266276.71;0.910852;43.475451;entrée;;;LOMBEZ;RUE DE LA REPUBLIQUE;commune;commune;1;32213000AB0228;43.475451,0.910852
32213_0440_00003;32213_0440;3;;Rue de la République;32220;32213;Lombez;;;530894.35;6266283.14;0.910597;43.475504;entrée;;;LOMBEZ;RUE DE LA REPUBLIQUE;commune;commune;1;32213000AB0249;43.475504,0.910597
32213_0440_00006;32213_0440;6;;Rue de la République;32220;32213;Lombez;;;530941.1;6266272.12;0.911178;43.475416;entrée;;;LOMBEZ;RUE DE LA REPUBLIQUE;commune;commune;1;32213000AB0169;43.475416,0.911178
32213_0440_00018;32213_0440;18;;Rue de la République;32220;32213;Lombez;;;530885.93;6266289.48;0.910491;43.475559;entrée;;;LOMBEZ;RUE DE LA REPUBLIQUE;commune;commune;1;32213000AB0163;43.475559,0.910491
32213_0440_00028;32213_0440;28;;Rue de la République;32220;32213;Lombez;;;530849.57;6266276.88;0.910046;43.475437;entrée;;;LOMBEZ;RUE DE LA REPUBLIQUE;commune;commune;1;32213000AB0671;43.475437,0.910046
32213_0440_00002;32213_0440;2;;Rue de la République;32220;32213;Lombez;;;530952.1;6266268.49;0.911315;43.475386;entrée;;;LOMBEZ;RUE DE LA REPUBLIQUE;commune;commune;1;32213000AB0171;43.475386,0.911315
32213_0440_00004;32213_0440;4;;Rue de la République;32220;32213;Lombez;;;530946.07;6266270.1;0.91124;43.475399;entrée;;;LOMBEZ;RUE DE LA REPUBLIQUE;commune;commune;1;;43.475399,0.91124
32213_0440_00016;32213_0440;16;;Rue de la République;32220;32213;Lombez;;;530894.75;6266289.03;0.9106;43.475557;entrée;;;LOMBEZ;RUE DE LA REPUBLIQUE;commune;commune;1;32213000AB0164;43.475557,0.9106
32213_0440_00024;32213_0440;24;;Rue de la République;32220;32213;Lombez;;;530868.51;6266289.05;0.910276;43.475551;entrée;;;LOMBEZ;RUE DE LA REPUBLIQUE;commune;commune;1;32213000AB0161;43.475551,0.910276
32213_0440_00026;32213_0440;26;;Rue de la République;32220;32213;Lombez;;;530855.63;6266282.83;0.910119;43.475492;entrée;;;LOMBEZ;RUE DE LA REPUBLIQUE;commune;commune;1;32213000AB0157;43.475492,0.910119
32213_0440_00008;32213_0440;8;;Rue de la République;32220;32213;Lombez;;;530934.45;6266274.63;0.911095;43.475437;entrée;;;LOMBEZ;RUE DE LA REPUBLIQUE;commune;commune;1;32213000AB0168;43.475437,0.911095
32213_0440_00010;32213_0440;10;;Rue de la République;32220;32213;Lombez;;;530925.4;6266278.65;0.910982;43.475471;entrée;;;LOMBEZ;RUE DE LA REPUBLIQUE;commune;commune;1;32213000AB0167;43.475471,0.910982
32213_0440_00020;32213_0440;20;;Rue de la République;32220;32213;Lombez;;;530878.65;6266289.67;0.910401;43.475559;entrée;;;LOMBEZ;RUE DE LA REPUBLIQUE;commune;commune;1;32213000AB0162;43.475559,0.910401
32213_0440_00014;32213_0440;14;;Rue de la République;32220;32213;Lombez;;;530903.44;6266287.02;0.910708;43.475541;entrée;;;LOMBEZ;RUE DE LA REPUBLIQUE;commune;commune;1;32213000AB0165;43.475541,0.910708
32213_0440_00022;32213_0440;22;;Rue de la République;32220;32213;Lombez;;;530872.74;6266289.72;0.910328;43.475558;entrée;;;LOMBEZ;RUE DE LA REPUBLIQUE;commune;commune;1;;43.475558,0.910328
32213_0440_00024_bis;32213_0440;24;bis;Rue de la République;32220;32213;Lombez;;;530863.97;6266288.84;0.91022;43.475548;entrée;;;LOMBEZ;RUE DE LA REPUBLIQUE;commune;commune;1;32213000AB0647;43.475548,0.91022
32249_0500_00006;32249_0500;6;;Rue de la République;32120;32249;Mauvezin;;;529044.13;6294644.39;0.878334;43.730154;;;;MAUVEZIN;RUE DE LA REPUBLIQUE;inconnue;inconnue;0;;43.730154,0.878334
32249_0500_00011;32249_0500;11;;Rue de la République;32120;32249;Mauvezin;;;529077.9;6294626.14;0.878759;43.729998;;;;MAUVEZIN;RUE DE LA REPUBLIQUE;inconnue;inconnue;0;;43.729998,0.878759
32249_0500_00020;32249_0500;20;;Rue de la République;32120;32249;Mauvezin;;;529143.89;6294574.12;0.879595;43.729546;;;;MAUVEZIN;RUE DE LA REPUBLIQUE;inconnue;inconnue;0;;43.729546,0.879595
32249_0500_00029;32249_0500;29;;Rue de la République;32120;32249;Mauvezin;;;529188.11;6294560.37;0.880148;43.729433;;;;MAUVEZIN;RUE DE LA REPUBLIQUE;inconnue;inconnue;0;;43.729433,0.880148
32249_0500_00031;32249_0500;31;;Rue de la République;32120;32249;Mauvezin;;;529200.89;6294553.14;0.880309;43.729371;;;;MAUVEZIN;RUE DE LA REPUBLIQUE;inconnue;inconnue;0;;43.729371,0.880309
32249_0500_00042;32249_0500;42;;Rue de la République;32120;32249;Mauvezin;;;529245.21;6294516.26;0.880871;43.72905;;;;MAUVEZIN;RUE DE LA REPUBLIQUE;inconnue;inconnue;0;;43.72905,0.880871
32249_0500_00043;32249_0500;43;;Rue de la République;32120;32249;Mauvezin;;;529242.5;6294529.45;0.880833;43.729168;;;;MAUVEZIN;RUE DE LA REPUBLIQUE;inconnue;inconnue;0;;43.729168,0.880833
32249_0500_00055;32249_0500;55;;Rue de la République;32120;32249;Mauvezin;;;529292.92;6294500.75;0.881468;43.728922;;;;MAUVEZIN;RUE DE LA REPUBLIQUE;inconnue;inconnue;0;;43.728922,0.881468
32249_0500_00057;32249_0500;57;;Rue de la République;32120;32249;Mauvezin;;;529300.7;6294496.21;0.881566;43.728883;;;;MAUVEZIN;RUE DE LA REPUBLIQUE;inconnue;inconnue;0;;43.728883,0.881566
32249_0500_00058;32249_0500;58;;Rue de la République;32120;32249;Mauvezin;;;529298.88;6294485.58;0.881547;43.728787;;;;MAUVEZIN;RUE DE LA REPUBLIQUE;inconnue;inconnue;0;;43.728787,0.881547
32249_0500_00060;32249_0500;60;;Rue de la République;32120;32249;Mauvezin;;;529301.98;6294483.72;0.881586;43.728771;;;;MAUVEZIN;RUE DE LA REPUBLIQUE;inconnue;inconnue;0;;43.728771,0.881586
32249_0500_00063;32249_0500;63;;Rue de la République;32120;32249;Mauvezin;;;529331.91;6294478.58;0.881959;43.728732;;;;MAUVEZIN;RUE DE LA REPUBLIQUE;inconnue;inconnue;0;;43.728732,0.881959
32249_0500_00064;32249_0500;64;;Rue de la République;32120;32249;Mauvezin;;;529312.38;6294477.88;0.881717;43.728721;;;;MAUVEZIN;RUE DE LA REPUBLIQUE;inconnue;inconnue;0;;43.728721,0.881717
32249_0500_00066;32249_0500;66;;Rue de la République;32120;32249;Mauvezin;;;529316.19;6294475.56;0.881765;43.728701;;;;MAUVEZIN;RUE DE LA REPUBLIQUE;inconnue;inconnue;0;;43.728701,0.881765
32249_0500_00075;32249_0500;75;;Rue de la République;32120;32249;Mauvezin;;;529422.17;6294429.25;0.883095;43.72831;;;;MAUVEZIN;RUE DE LA REPUBLIQUE;inconnue;inconnue;0;;43.72831,0.883095
32249_0500_00080;32249_0500;80;;Rue de la République;32120;32249;Mauvezin;;;529443.71;6294405.99;0.88337;43.728106;;;;MAUVEZIN;RUE DE LA REPUBLIQUE;inconnue;inconnue;0;;43.728106,0.88337
32249_0500_00087;32249_0500;87;;Rue de la République;32120;32249;Mauvezin;;;529507.81;6294382.04;0.884173;43.727906;;;;MAUVEZIN;RUE DE LA REPUBLIQUE;inconnue;inconnue;0;;43.727906,0.884173
32249_0500_00093;32249_0500;93;;Rue de la République;32120;32249;Mauvezin;;;529527.62;6294369.5;0.884423;43.727798;;;;MAUVEZIN;RUE DE LA REPUBLIQUE;inconnue;inconnue;0;;43.727798,0.884423
32249_0500_00001_bis;32249_0500;1;bis;Rue de la République;32120;32249;Mauvezin;;;529040.73;6294658.83;0.878287;43.730283;;;;MAUVEZIN;RUE DE LA REPUBLIQUE;inconnue;inconnue;0;;43.730283,0.878287
32249_0500_00016_bis;32249_0500;16;bis;Rue de la République;32120;32249;Mauvezin;;;529084.3;6294612.3;0.878843;43.729875;;;;MAUVEZIN;RUE DE LA REPUBLIQUE;inconnue;inconnue;0;;43.729875,0.878843
32249_0500_00012_bis;32249_0500;12;bis;Rue de la République;32120;32249;Mauvezin;;;529066.91;6294625.33;0.878623;43.729988;;;;MAUVEZIN;RUE DE LA REPUBLIQUE;inconnue;inconnue;0;;43.729988,0.878623
32249_0500_00003;32249_0500;3;;Rue de la République;32120;32249;Mauvezin;;;529049.92;6294649.8;0.878404;43.730204;;;;MAUVEZIN;RUE DE LA REPUBLIQUE;inconnue;inconnue;0;;43.730204,0.878404
32249_0500_00012;32249_0500;12;;Rue de la République;32120;32249;Mauvezin;;;529068.89;6294624.05;0.878648;43.729977;;;;MAUVEZIN;RUE DE LA REPUBLIQUE;inconnue;inconnue;0;;43.729977,0.878648
32249_0500_00015;32249_0500;15;;Rue de la République;32120;32249;Mauvezin;;;529104.68;6294608.75;0.879097;43.729848;;;;MAUVEZIN;RUE DE LA REPUBLIQUE;inconnue;inconnue;0;;43.729848,0.879097
32249_0500_00018;32249_0500;18;;Rue de la République;32120;32249;Mauvezin;;;529131.9;6294580.89;0.879444;43.729604;;;;MAUVEZIN;RUE DE LA REPUBLIQUE;inconnue;inconnue;0;;43.729604,0.879444
32249_0500_00032;32249_0500;32;;Rue de la République;32120;32249;Mauvezin;;;529194.0;6294545.54;0.880226;43.729301;;;;MAUVEZIN;RUE DE LA REPUBLIQUE;inconnue;inconnue;0;;43.729301,0.880226
32249_0500_00036;32249_0500;36;;Rue de la République;32120;32249;Mauvezin;;;529219.16;6294530.97;0.880543;43.729176;;;;MAUVEZIN;RUE DE LA REPUBLIQUE;inconnue;inconnue;0;;43.729176,0.880543
32249_0500_00045;32249_0500;45;;Rue de la République;32120;32249;Mauvezin;;;529247.9;6294526.42;0.880901;43.729142;;;;MAUVEZIN;RUE DE LA REPUBLIQUE;inconnue;inconnue;0;;43.729142,0.880901
32249_0500_00052;32249_0500;52;;Rue de la République;32120;32249;Mauvezin;;;529284.11;6294493.98;0.881361;43.728859;;;;MAUVEZIN;RUE DE LA REPUBLIQUE;inconnue;inconnue;0;;43.728859,0.881361
32249_0500_00053;32249_0500;53;;Rue de la République;32120;32249;Mauvezin;;;529285.77;6294504.83;0.881378;43.728957;;;;MAUVEZIN;RUE DE LA REPUBLIQUE;inconnue;inconnue;0;;43.728957,0.881378
32249_0500_00068;32249_0500;68;;Rue de la République;32120;32249;Mauvezin;;;529326.92;6294469.82;0.8819;43.728652;;;;MAUVEZIN;RUE DE LA REPUBLIQUE;inconnue;inconnue;0;;43.728652,0.8819
32249_0500_00073;32249_0500;73;;Rue de la République;32120;32249;Mauvezin;;;529376.93;6294453.03;0.882526;43.728513;;;;MAUVEZIN;RUE DE LA REPUBLIQUE;inconnue;inconnue;0;;43.728513,0.882526
32249_0500_00074;32249_0500;74;;Rue de la République;32120;32249;Mauvezin;;;529372.77;6294445.25;0.882477;43.728442;;;;MAUVEZIN;RUE DE LA REPUBLIQUE;inconnue;inconnue;0;;43.728442,0.882477
32249_0500_00083;32249_0500;83;;Rue de la République;32120;32249;Mauvezin;;;529472.53;6294401.55;0.883729;43.728073;;;;MAUVEZIN;RUE DE LA REPUBLIQUE;inconnue;inconnue;0;;43.728073,0.883729
32249_0500_00053_bis;32249_0500;53;bis;Rue de la République;32120;32249;Mauvezin;;;529311.51;6294490.47;0.881702;43.728834;;;;MAUVEZIN;RUE DE LA REPUBLIQUE;inconnue;inconnue;0;;43.728834,0.881702
32249_0500_00014;32249_0500;14;;Rue de la République;32120;32249;Mauvezin;;;529074.74;6294619.45;0.878722;43.729937;;;;MAUVEZIN;RUE DE LA REPUBLIQUE;inconnue;inconnue;0;;43.729937,0.878722
32249_0500_00016;32249_0500;16;;Rue de la République;32120;32249;Mauvezin;;;529080.18;6294615.08;0.878791;43.729899;;;;MAUVEZIN;RUE DE LA REPUBLIQUE;inconnue;inconnue;0;;43.729899,0.878791
32249_0500_00017;32249_0500;17;;Rue de la République;32120;32249;Mauvezin;;;529135.22;6294590.47;0.879482;43.729691;;;;MAUVEZIN;RUE DE LA REPUBLIQUE;inconnue;inconnue;0;;43.729691,0.879482
32249_0500_00019;32249_0500;19;;Rue de la République;32120;32249;Mauvezin;;;529143.33;6294585.92;0.879584;43.729652;;;;MAUVEZIN;RUE DE LA REPUBLIQUE;inconnue;inconnue;0;;43.729652,0.879584
32249_0500_00021;32249_0500;21;;Rue de la République;32120;32249;Mauvezin;;;529153.96;6294579.85;0.879718;43.7296;;;;MAUVEZIN;RUE DE LA REPUBLIQUE;inconnue;inconnue;0;;43.7296,0.879718
32249_0500_00024;32249_0500;24;;Rue de la République;32120;32249;Mauvezin;;;529157.63;6294566.3;0.879768;43.729479;;;;MAUVEZIN;RUE DE LA REPUBLIQUE;inconnue;inconnue;0;;43.729479,0.879768
32249_0500_00028;32249_0500;28;;Rue de la République;32120;32249;Mauvezin;;;529177.12;6294556.44;0.880013;43.729395;;;;MAUVEZIN;RUE DE LA REPUBLIQUE;inconnue;inconnue;0;;43.729395,0.880013
32249_0500_00034;32249_0500;34;;Rue de la République;32120;32249;Mauvezin;;;529209.71;6294536.45;0.880424;43.729223;;;;MAUVEZIN;RUE DE LA REPUBLIQUE;inconnue;inconnue;0;;43.729223,0.880424
32249_0500_00040;32249_0500;40;;Rue de la République;32120;32249;Mauvezin;;;529238.3;6294520.23;0.880784;43.729084;;;;MAUVEZIN;RUE DE LA REPUBLIQUE;inconnue;inconnue;0;;43.729084,0.880784
32249_0500_00050;32249_0500;50;;Rue de la République;32120;32249;Mauvezin;;;529277.92;6294497.48;0.881283;43.728889;;;;MAUVEZIN;RUE DE LA REPUBLIQUE;inconnue;inconnue;0;;43.728889,0.881283
32249_0500_00051;32249_0500;51;;Rue de la République;32120;32249;Mauvezin;;;529274.18;6294511.37;0.881232;43.729013;;;;MAUVEZIN;RUE DE LA REPUBLIQUE;inconnue;inconnue;0;;43.729013,0.881232
32249_0500_00061;32249_0500;61;;Rue de la République;32120;32249;Mauvezin;;;529323.49;6294483.25;0.881853;43.728772;;;;MAUVEZIN;RUE DE LA REPUBLIQUE;inconnue;inconnue;0;;43.728772,0.881853
32249_0500_00067;32249_0500;67;;Rue de la République;32120;32249;Mauvezin;;;529346.61;6294470.74;0.882144;43.728665;;;;MAUVEZIN;RUE DE LA REPUBLIQUE;inconnue;inconnue;0;;43.728665,0.882144
32249_0500_00072;32249_0500;72;;Rue de la République;32120;32249;Mauvezin;;;529350.2;6294457.19;0.882193;43.728544;;;;MAUVEZIN;RUE DE LA REPUBLIQUE;inconnue;inconnue;0;;43.728544,0.882193
32249_0500_00085;32249_0500;85;;Rue de la République;32120;32249;Mauvezin;;;529482.31;6294396.39;0.883852;43.728029;;;;MAUVEZIN;RUE DE LA REPUBLIQUE;inconnue;inconnue;0;;43.728029,0.883852
32249_0500_00089;32249_0500;89;;Rue de la République;32120;32249;Mauvezin;;;529517.2;6294377.45;0.884291;43.727867;;;;MAUVEZIN;RUE DE LA REPUBLIQUE;inconnue;inconnue;0;;43.727867,0.884291
32249_0500_00091;32249_0500;91;;Rue de la République;32120;32249;Mauvezin;;;529521.23;6294374.56;0.884342;43.727842;;;;MAUVEZIN;RUE DE LA REPUBLIQUE;inconnue;inconnue;0;;43.727842,0.884342
32249_0500_00062_bis;32249_0500;62;bis;Rue de la République;32120;32249;Mauvezin;;;529345.94;6294460.86;0.882139;43.728576;;;;MAUVEZIN;RUE DE LA REPUBLIQUE;inconnue;inconnue;0;;43.728576,0.882139
32249_0500_00026_bis;32249_0500;26;bis;Rue de la République;32120;32249;Mauvezin;;;529168.43;6294560.01;0.879904;43.729425;;;;MAUVEZIN;RUE DE LA REPUBLIQUE;inconnue;inconnue;0;;43.729425,0.879904
32249_0500_00001;32249_0500;1;;Rue de la République;32120;32249;Mauvezin;;;529032.18;6294667.62;0.878178;43.73036;;;;MAUVEZIN;RUE DE LA REPUBLIQUE;inconnue;inconnue;0;;43.73036,0.878178
32249_0500_00002;32249_0500;2;;Rue de la République;32120;32249;Mauvezin;;;529033.38;6294652.58;0.878198;43.730225;;;;MAUVEZIN;RUE DE LA REPUBLIQUE;inconnue;inconnue;0;;43.730225,0.878198
32249_0500_00005;32249_0500;5;;Rue de la République;32120;32249;Mauvezin;;;529058.97;6294641.66;0.878519;43.730133;;;;MAUVEZIN;RUE DE LA REPUBLIQUE;inconnue;inconnue;0;;43.730133,0.878519
32249_0500_00007;32249_0500;7;;Rue de la République;32120;32249;Mauvezin;;;529065.67;6294636.25;0.878604;43.730086;;;;MAUVEZIN;RUE DE LA REPUBLIQUE;inconnue;inconnue;0;;43.730086,0.878604
32249_0500_00008;32249_0500;8;;Rue de la République;32120;32249;Mauvezin;;;529049.32;6294639.47;0.8784;43.730111;;;;MAUVEZIN;RUE DE LA REPUBLIQUE;inconnue;inconnue;0;;43.730111,0.8784
32249_0500_00010;32249_0500;10;;Rue de la République;32120;32249;Mauvezin;;;529060.53;6294630.95;0.878542;43.730037;;;;MAUVEZIN;RUE DE LA REPUBLIQUE;inconnue;inconnue;0;;43.730037,0.878542
32249_0500_00013;32249_0500;13;;Rue de la République;32120;32249;Mauvezin;;;529098.81;6294612.24;0.879023;43.729878;;;;MAUVEZIN;RUE DE LA REPUBLIQUE;inconnue;inconnue;0;;43.729878,0.879023
32249_0500_00022;32249_0500;22;;Rue de la République;32120;32249;Mauvezin;;;529150.16;6294570.4;0.879674;43.729514;;;;MAUVEZIN;RUE DE LA REPUBLIQUE;inconnue;inconnue;0;;43.729514,0.879674
32249_0500_00027;32249_0500;27;;Rue de la République;32120;32249;Mauvezin;;;529178.81;6294565.51;0.880031;43.729477;;;;MAUVEZIN;RUE DE LA REPUBLIQUE;inconnue;inconnue;0;;43.729477,0.880031
32249_0500_00030;32249_0500;30;;Rue de la République;32120;32249;Mauvezin;;;529188.83;6294548.35;0.880161;43.729325;;;;MAUVEZIN;RUE DE LA REPUBLIQUE;inconnue;inconnue;0;;43.729325,0.880161
32249_0500_00035;32249_0500;35;;Rue de la République;32120;32249;Mauvezin;;;529215.73;6294544.4;0.880496;43.729296;;;;MAUVEZIN;RUE DE LA REPUBLIQUE;inconnue;inconnue;0;;43.729296,0.880496
32249_0500_00041;32249_0500;41;;Rue de la République;32120;32249;Mauvezin;;;529235.91;6294533.19;0.88075;43.7292;;;;MAUVEZIN;RUE DE LA REPUBLIQUE;inconnue;inconnue;0;;43.7292,0.88075
32249_0500_00044;32249_0500;44;;Rue de la République;32120;32249;Mauvezin;;;529254.03;6294511.47;0.880982;43.729009;;;;MAUVEZIN;RUE DE LA REPUBLIQUE;inconnue;inconnue;0;;43.729009,0.880982
32249_0500_00046;32249_0500;46;;Rue de la République;32120;32249;Mauvezin;;;529263.63;6294505.87;0.881103;43.728961;;;;MAUVEZIN;RUE DE LA REPUBLIQUE;inconnue;inconnue;0;;43.728961,0.881103
32249_0500_00049;32249_0500;49;;Rue de la République;32120;32249;Mauvezin;;;529262.83;6294517.9;0.881089;43.729069;;;;MAUVEZIN;RUE DE LA REPUBLIQUE;inconnue;inconnue;0;;43.729069,0.881089
32249_0500_00056;32249_0500;56;;Rue de la République;32120;32249;Mauvezin;;;529294.99;6294487.91;0.881498;43.728807;;;;MAUVEZIN;RUE DE LA REPUBLIQUE;inconnue;inconnue;0;;43.728807,0.881498
32249_0500_00059;32249_0500;59;;Rue de la République;32120;32249;Mauvezin;;;529308.63;6294491.55;0.881666;43.728843;;;;MAUVEZIN;RUE DE LA REPUBLIQUE;inconnue;inconnue;0;;43.728843,0.881666
32249_0500_00062;32249_0500;62;;Rue de la République;32120;32249;Mauvezin;;;529307.22;6294480.8;0.881652;43.728746;;;;MAUVEZIN;RUE DE LA REPUBLIQUE;inconnue;inconnue;0;;43.728746,0.881652
32249_0500_00071;32249_0500;71;;Rue de la République;32120;32249;Mauvezin;;;529357.79;6294463.88;0.882285;43.728606;;;;MAUVEZIN;RUE DE LA REPUBLIQUE;inconnue;inconnue;0;;43.728606,0.882285
32249_0500_00079;32249_0500;79;;Rue de la République;32120;32249;Mauvezin;;;529461.73;6294407.4;0.883593;43.728123;;;;MAUVEZIN;RUE DE LA REPUBLIQUE;inconnue;inconnue;0;;43.728123,0.883593
32249_0500_00081;32249_0500;81;;Rue de la République;32120;32249;Mauvezin;;;529469.83;6294402.84;0.883695;43.728084;;;;MAUVEZIN;RUE DE LA REPUBLIQUE;inconnue;inconnue;0;;43.728084,0.883695
32249_0500_00004;32249_0500;4;;Rue de la République;32120;32249;Mauvezin;;;529038.61;6294649.21;0.878264;43.730196;;;;MAUVEZIN;RUE DE LA REPUBLIQUE;inconnue;inconnue;0;;43.730196,0.878264
32249_0500_00009;32249_0500;9;;Rue de la République;32120;32249;Mauvezin;;;529070.07;6294631.69;0.87866;43.730046;;;;MAUVEZIN;RUE DE LA REPUBLIQUE;inconnue;inconnue;0;;43.730046,0.87866
32249_0500_00023;32249_0500;23;;Rue de la République;32120;32249;Mauvezin;;;529165.16;6294573.55;0.879859;43.729546;;;;MAUVEZIN;RUE DE LA REPUBLIQUE;inconnue;inconnue;0;;43.729546,0.879859
32249_0500_00025;32249_0500;25;;Rue de la République;32120;32249;Mauvezin;;;529172.47;6294569.35;0.879951;43.72951;;;;MAUVEZIN;RUE DE LA REPUBLIQUE;inconnue;inconnue;0;;43.72951,0.879951
32249_0500_00026;32249_0500;26;;Rue de la République;32120;32249;Mauvezin;;;529168.43;6294560.01;0.879904;43.729425;;;;MAUVEZIN;RUE DE LA REPUBLIQUE;inconnue;inconnue;0;;43.729425,0.879904
32249_0500_00033;32249_0500;33;;Rue de la République;32120;32249;Mauvezin;;;529210.5;6294547.65;0.88043;43.729324;;;;MAUVEZIN;RUE DE LA REPUBLIQUE;inconnue;inconnue;0;;43.729324,0.88043
32249_0500_00037;32249_0500;37;;Rue de la République;32120;32249;Mauvezin;;;529222.4;6294540.55;0.88058;43.729263;;;;MAUVEZIN;RUE DE LA REPUBLIQUE;inconnue;inconnue;0;;43.729263,0.88058
32249_0500_00038;32249_0500;38;;Rue de la République;32120;32249;Mauvezin;;;529229.88;6294524.79;0.880678;43.729123;;;;MAUVEZIN;RUE DE LA REPUBLIQUE;inconnue;inconnue;0;;43.729123,0.880678
32249_0500_00039;32249_0500;39;;Rue de la République;32120;32249;Mauvezin;;;529228.68;6294537.16;0.880659;43.729234;;;;MAUVEZIN;RUE DE LA REPUBLIQUE;inconnue;inconnue;0;;43.729234,0.880659
32249_0500_00047;32249_0500;47;;Rue de la République;32120;32249;Mauvezin;;;529254.81;6294522.45;0.880988;43.729108;;;;MAUVEZIN;RUE DE LA REPUBLIQUE;inconnue;inconnue;0;;43.729108,0.880988
32249_0500_00048;32249_0500;48;;Rue de la République;32120;32249;Mauvezin;;;529271.09;6294501.45;0.881197;43.728923;;;;MAUVEZIN;RUE DE LA REPUBLIQUE;inconnue;inconnue;0;;43.728923,0.881197
32249_0500_00054;32249_0500;54;;Rue de la République;32120;32249;Mauvezin;;;529289.67;6294490.83;0.881431;43.728832;;;;MAUVEZIN;RUE DE LA REPUBLIQUE;inconnue;inconnue;0;;43.728832,0.881431
32249_0500_00065;32249_0500;65;;Rue de la République;32120;32249;Mauvezin;;;529340.32;6294473.8;0.882065;43.728691;;;;MAUVEZIN;RUE DE LA REPUBLIQUE;inconnue;inconnue;0;;43.728691,0.882065
32249_0500_00069;32249_0500;69;;Rue de la République;32120;32249;Mauvezin;;;529351.54;6294468.05;0.882206;43.728642;;;;MAUVEZIN;RUE DE LA REPUBLIQUE;inconnue;inconnue;0;;43.728642,0.882206
32249_0500_00070;32249_0500;70;;Rue de la République;32120;32249;Mauvezin;;;529336.2;6294464.35;0.882017;43.728605;;;;MAUVEZIN;RUE DE LA REPUBLIQUE;inconnue;inconnue;0;;43.728605,0.882017
32249_0500_00076;32249_0500;76;;Rue de la République;32120;32249;Mauvezin;;;529385.81;6294438.23;0.882641;43.728382;;;;MAUVEZIN;RUE DE LA REPUBLIQUE;inconnue;inconnue;0;;43.728382,0.882641
32249_0500_00077;32249_0500;77;;Rue de la République;32120;32249;Mauvezin;;;529445.09;6294415.4;0.883384;43.728191;;;;MAUVEZIN;RUE DE LA REPUBLIQUE;inconnue;inconnue;0;;43.728191,0.883384
32249_0500_00078;32249_0500;78;;Rue de la République;32120;32249;Mauvezin;;;529425.04;6294416.16;0.883135;43.728193;;;;MAUVEZIN;RUE DE LA REPUBLIQUE;inconnue;inconnue;0;;43.728193,0.883135
32249_0500_00032_bis;32249_0500;32;bis;Rue de la République;32120;32249;Mauvezin;;;529200.82;6294541.58;0.880312;43.729267;;;;MAUVEZIN;RUE DE LA REPUBLIQUE;inconnue;inconnue;0;;43.729267,0.880312
32335_0030_00162;32335_0030;162;;Rue de la République;32120;32335;Puycasquier;;;518577.5;6296761.47;0.747756;43.746589;;;;PUYCASQUIER;RUE DE LA REPUBLIQUE;inconnue;inconnue;0;;43.746589,0.747756
32335_0030_00075;32335_0030;75;;Rue de la République;32120;32335;Puycasquier;;;518507.57;6296815.94;0.746869;43.747061;;;;PUYCASQUIER;RUE DE LA REPUBLIQUE;inconnue;inconnue;0;;43.747061,0.746869
32335_0030_00108;32335_0030;108;;Rue de la République;32120;32335;Puycasquier;;;518528.4;6296783.33;0.747139;43.746773;;;;PUYCASQUIER;RUE DE LA REPUBLIQUE;inconnue;inconnue;0;;43.746773,0.747139
32335_0030_00164;32335_0030;164;;Rue de la République;32120;32335;Puycasquier;;;518601.37;6296747.79;0.748057;43.746472;;;;PUYCASQUIER;RUE DE LA REPUBLIQUE;inconnue;inconnue;0;;43.746472,0.748057
32335_0030_00060;32335_0030;60;;Rue de la République;32120;32335;Puycasquier;;;518493.51;6296803.56;0.746699;43.746946;;;;PUYCASQUIER;RUE DE LA REPUBLIQUE;inconnue;inconnue;0;;43.746946,0.746699
32335_0030_00125;32335_0030;125;;Rue de la République;32120;32335;Puycasquier;;;518550.32;6296788.93;0.747409;43.746829;;;;PUYCASQUIER;RUE DE LA REPUBLIQUE;inconnue;inconnue;0;;43.746829,0.747409
32406_2fvr2k_00011;;11;;Rue de la République;32270;32406;Saint-Sauvy;;;524310.65;6290722.51;0.820961;43.693717;entrée;;;SAINT-SAUVY;RUE DE LA REPUBLIQUE;commune;commune;1;324060000C0118;43.693717,0.820961
32406_2fvr2k_00012;;12;;Rue de la République;32270;32406;Saint-Sauvy;;;524306.54;6290716.74;0.820912;43.693664;entrée;;;SAINT-SAUVY;RUE DE LA REPUBLIQUE;commune;commune;1;324060000C0133;43.693664,0.820912
32406_2fvr2k_00021;;21;;Rue de la République;32270;32406;Saint-Sauvy;;;524317.33;6290718.88;0.821045;43.693686;entrée;;;SAINT-SAUVY;RUE DE LA REPUBLIQUE;commune;commune;1;324060000C0115;43.693686,0.821045
32406_2fvr2k_00044;;44;;Rue de la République;32270;32406;Saint-Sauvy;;;524331.92;6290698.14;0.821233;43.693503;entrée;;;SAINT-SAUVY;RUE DE LA REPUBLIQUE;commune;commune;1;324060000C0143;43.693503,0.821233
32406_2fvr2k_00048;;48;;Rue de la République;32270;32406;Saint-Sauvy;;;524336.27;6290694.9;0.821288;43.693475;entrée;;;SAINT-SAUVY;RUE DE LA REPUBLIQUE;commune;commune;1;324060000C0144;43.693475,0.821288
32406_2fvr2k_00049;;49;;Rue de la République;32270;32406;Saint-Sauvy;;;524341.06;6290701.66;0.821345;43.693537;entrée;;;SAINT-SAUVY;RUE DE LA REPUBLIQUE;commune;commune;1;324060000C0113;43.693537,0.821345
32406_2fvr2k_00027;;27;;Rue de la République;32270;32406;Saint-Sauvy;;;524323.13;6290715.83;0.821118;43.69366;entrée;;;SAINT-SAUVY;RUE DE LA REPUBLIQUE;commune;commune;1;324060000C0114;43.69366,0.821118
32406_2fvr2k_00036;;36;;Rue de la République;32270;32406;Saint-Sauvy;;;524326.08;6290702.63;0.821159;43.693542;entrée;;;SAINT-SAUVY;RUE DE LA REPUBLIQUE;commune;commune;1;324060000C0142;43.693542,0.821159
32406_2fvr2k_00020;;20;;Rue de la République;32270;32406;Saint-Sauvy;;;524313.57;6290711.21;0.821001;43.693616;entrée;;;SAINT-SAUVY;RUE DE LA REPUBLIQUE;commune;commune;1;324060000C0135;43.693616,0.821001
32406_2fvr2k_00024;;24;;Rue de la République;32270;32406;Saint-Sauvy;;;524317.28;6290708.43;0.821048;43.693592;entrée;;;SAINT-SAUVY;RUE DE LA REPUBLIQUE;commune;commune;1;324060000C0141;43.693592,0.821048
32410_0910_00003;32410_0910;3;;Rue de la République;32130;32410;Samatan;;;532586.66;6268173.8;0.930885;43.492909;;;;SAMATAN;RUE DE LA REPUBLIQUE;inconnue;inconnue;0;;43.492909,0.930885
32410_0910_00006;32410_0910;6;;Rue de la République;32130;32410;Samatan;;;532626.84;6268224.11;0.931365;43.493371;;;;SAMATAN;RUE DE LA REPUBLIQUE;inconnue;inconnue;0;;43.493371,0.931365
32410_0910_00024;32410_0910;24;;Rue de la République;32130;32410;Samatan;;;532572.69;6268134.69;0.930725;43.492554;;;;SAMATAN;RUE DE LA REPUBLIQUE;inconnue;inconnue;0;;43.492554,0.930725
32410_0910_00020_bis;32410_0910;20;bis;Rue de la République;32130;32410;Samatan;;;532594.03;6268173.82;0.930976;43.492911;;;;SAMATAN;RUE DE LA REPUBLIQUE;inconnue;inconnue;0;;43.492911,0.930976
32410_0910_00005_bis;32410_0910;5;bis;Rue de la République;32130;32410;Samatan;;;532579.34;6268172.32;0.930795;43.492894;;;;SAMATAN;RUE DE LA REPUBLIQUE;arcep;inconnue;0;;43.492894,0.930795
32410_0910_00005;32410_0910;5;;Rue de la République;32130;32410;Samatan;;;532583.88;6268169.42;0.930852;43.492869;;;;SAMATAN;RUE DE LA REPUBLIQUE;inconnue;inconnue;0;;43.492869,0.930852
32410_0910_00012;32410_0910;12;;Rue de la République;32130;32410;Samatan;;;532613.1;6268200.12;0.931203;43.493152;;;;SAMATAN;RUE DE LA REPUBLIQUE;inconnue;inconnue;0;;43.493152,0.931203
32410_0910_00013_ter;32410_0910;13;ter;Rue de la République;32130;32410;Samatan;;;532562.08;6268134.52;0.930594;43.49255;;;;SAMATAN;RUE DE LA REPUBLIQUE;arcep;inconnue;0;;43.49255,0.930594
32410_0910_00009_bis;32410_0910;9;bis;Rue de la République;32130;32410;Samatan;;;532555.22;6268147.6;0.930505;43.492666;;;;SAMATAN;RUE DE LA REPUBLIQUE;arcep;inconnue;0;;43.492666,0.930505
32410_0910_00002;32410_0910;2;;Rue de la République;32130;32410;Samatan;;;532627.78;6268250.99;0.931368;43.493613;;;;SAMATAN;RUE DE LA REPUBLIQUE;inconnue;inconnue;0;;43.493613,0.931368
32410_0910_00008;32410_0910;8;;Rue de la République;32130;32410;Samatan;;;532624.57;6268217.94;0.931339;43.493315;;;;SAMATAN;RUE DE LA REPUBLIQUE;inconnue;inconnue;0;;43.493315,0.931339
32410_0910_00010;32410_0910;10;;Rue de la République;32130;32410;Samatan;;;532618.83;6268208.98;0.931271;43.493233;;;;SAMATAN;RUE DE LA REPUBLIQUE;inconnue;inconnue;0;;43.493233,0.931271
32410_0910_00011;32410_0910;11;;Rue de la République;32130;32410;Samatan;;;532562.28;6268129.85;0.930598;43.492508;;;;SAMATAN;RUE DE LA REPUBLIQUE;inconnue;inconnue;0;;43.492508,0.930598
32410_0910_00022;32410_0910;22;;Rue de la République;32130;32410;Samatan;;;532579.62;6268148.96;0.930806;43.492684;;;;SAMATAN;RUE DE LA REPUBLIQUE;inconnue;inconnue;0;;43.492684,0.930806
32410_0910_00026;32410_0910;26;;Rue de la République;32130;32410;Samatan;;;532569.62;6268125.65;0.93069;43.492472;;;;SAMATAN;RUE DE LA REPUBLIQUE;inconnue;inconnue;0;;43.492472,0.93069
32410_0910_00028;32410_0910;28;;Rue de la République;32130;32410;Samatan;;;532567.81;6268118.59;0.93067;43.492408;;;;SAMATAN;RUE DE LA REPUBLIQUE;inconnue;inconnue;0;;43.492408,0.93067
32410_0910_00004;32410_0910;4;;Rue de la République;32130;32410;Samatan;;;532629.67;6268239.38;0.931395;43.493509;;;;SAMATAN;RUE DE LA REPUBLIQUE;inconnue;inconnue;0;;43.493509,0.931395
32410_0910_00018;32410_0910;18;;Rue de la République;32130;32410;Samatan;;;532587.62;6268160.87;0.930901;43.492793;;;;SAMATAN;RUE DE LA REPUBLIQUE;inconnue;inconnue;0;;43.492793,0.930901
32410_0910_00020;32410_0910;20;;Rue de la République;32130;32410;Samatan;;;532583.01;6268154.66;0.930846;43.492736;;;;SAMATAN;RUE DE LA REPUBLIQUE;inconnue;inconnue;0;;43.492736,0.930846
32410_0910_00016_bis;32410_0910;16;bis;Rue de la République;32130;32410;Samatan;;;532594.03;6268173.82;0.930976;43.492911;;;;SAMATAN;RUE DE LA REPUBLIQUE;inconnue;inconnue;0;;43.492911,0.930976
32410_0910_00010_bis;32410_0910;10;bis;Rue de la République;32130;32410;Samatan;;;532621.4;6268214.47;0.931301;43.493283;;;;SAMATAN;RUE DE LA REPUBLIQUE;inconnue;inconnue;0;;43.493283,0.931301
32410_0910_00001;32410_0910;1;;Rue de la République;32130;32410;Samatan;;;532586.8;6268179.02;0.930885;43.492956;;;;SAMATAN;RUE DE LA REPUBLIQUE;inconnue;inconnue;0;;43.492956,0.930885
32410_0910_00009;32410_0910;9;;Rue de la République;32130;32410;Samatan;;;532564.39;6268139.24;0.930621;43.492593;;;;SAMATAN;RUE DE LA REPUBLIQUE;inconnue;inconnue;0;;43.492593,0.930621
32410_0910_00013;32410_0910;13;;Rue de la République;32130;32410;Samatan;;;532556.98;6268131.54;0.930532;43.492522;;;;SAMATAN;RUE DE LA REPUBLIQUE;inconnue;inconnue;0;;43.492522,0.930532
32410_0910_00014;32410_0910;14;;Rue de la République;32130;32410;Samatan;;;532606.6;6268190.06;0.931126;43.49306;;;;SAMATAN;RUE DE LA REPUBLIQUE;inconnue;inconnue;0;;43.49306,0.931126
32410_0910_00015;32410_0910;15;;Rue de la République;32130;32410;Samatan;;;532554.78;6268124.71;0.930507;43.49246;;;;SAMATAN;RUE DE LA REPUBLIQUE;inconnue;inconnue;0;;43.49246,0.930507
32410_0910_00016;32410_0910;16;;Rue de la République;32130;32410;Samatan;;;532593.02;6268169.07;0.930965;43.492868;;;;SAMATAN;RUE DE LA REPUBLIQUE;inconnue;inconnue;0;;43.492868,0.930965
32410_0910_00017;32410_0910;17;;Rue de la République;32130;32410;Samatan;;;532561.75;6268128.31;0.930592;43.492494;;;;SAMATAN;RUE DE LA REPUBLIQUE;inconnue;inconnue;0;;43.492494,0.930592
32410_0910_00014_bis;32410_0910;14;bis;Rue de la République;32130;32410;Samatan;;;532601.64;6268183.08;0.931067;43.492996;;;;SAMATAN;RUE DE LA REPUBLIQUE;inconnue;inconnue;0;;43.492996,0.931067
32410_0910_00018_bis;32410_0910;18;bis;Rue de la République;32130;32410;Samatan;;;532586.2;6268156.24;0.930885;43.492751;;;;SAMATAN;RUE DE LA REPUBLIQUE;arcep;inconnue;0;;43.492751,0.930885
32410_0910_00013_bis;32410_0910;13;bis;Rue de la République;32130;32410;Samatan;;;532562.0;6268131.52;0.930594;43.492523;;;;SAMATAN;RUE DE LA REPUBLIQUE;arcep;inconnue;0;;43.492523,0.930594
32459_0400_00001;32459_0400;1;;Rue de la République;32310;32459;Valence-sur-Baïse;;;489500.49;6312759.95;0.380443;43.882419;;;;VALENCE-SUR-BAISE;RUE DE LA REPUBLIQUE;inconnue;inconnue;0;;43.882419,0.380443
32459_0400_00003;32459_0400;3;;Rue de la République;32310;32459;Valence-sur-Baïse;;;489489.02;6312770.67;0.380296;43.882512;;;;VALENCE-SUR-BAISE;RUE DE LA REPUBLIQUE;inconnue;inconnue;0;;43.882512,0.380296
32459_0400_00004;32459_0400;4;;Rue de la République;32310;32459;Valence-sur-Baïse;;;489495.01;6312774.25;0.380369;43.882546;;;;VALENCE-SUR-BAISE;RUE DE LA REPUBLIQUE;inconnue;inconnue;0;;43.882546,0.380369
32459_0400_00006;32459_0400;6;;Rue de la République;32310;32459;Valence-sur-Baïse;;;489437.78;6312791.83;0.37965;43.882687;;;;VALENCE-SUR-BAISE;RUE DE LA REPUBLIQUE;inconnue;inconnue;0;;43.882687,0.37965
32459_0400_00007;32459_0400;7;;Rue de la République;32310;32459;Valence-sur-Baïse;;;489479.22;6312780.45;0.38017;43.882597;;;;VALENCE-SUR-BAISE;RUE DE LA REPUBLIQUE;inconnue;inconnue;0;;43.882597,0.38017
32459_0400_00009;32459_0400;9;;Rue de la République;32310;32459;Valence-sur-Baïse;;;489472.2;6312787.02;0.38008;43.882654;;;;VALENCE-SUR-BAISE;RUE DE LA REPUBLIQUE;inconnue;inconnue;0;;43.882654,0.38008
32459_0400_00020;32459_0400;20;;Rue de la République;32310;32459;Valence-sur-Baïse;;;489288.98;6312820.01;0.377788;43.882896;;;;VALENCE-SUR-BAISE;RUE DE LA REPUBLIQUE;inconnue;inconnue;0;;43.882896,0.377788
32459_0400_00026;32459_0400;26;;Rue de la République;32310;32459;Valence-sur-Baïse;;;489269.93;6312859.0;0.377535;43.883241;;;;VALENCE-SUR-BAISE;RUE DE LA REPUBLIQUE;inconnue;inconnue;0;;43.883241,0.377535
32459_0400_00037;32459_0400;37;;Rue de la République;32310;32459;Valence-sur-Baïse;;;489385.94;6312778.1;0.379011;43.882548;;;;VALENCE-SUR-BAISE;RUE DE LA REPUBLIQUE;inconnue;inconnue;0;;43.882548,0.379011
32459_0400_00010;32459_0400;10;;Rue de la République;32310;32459;Valence-sur-Baïse;;;489387.36;6312787.06;0.379025;43.882629;;;;VALENCE-SUR-BAISE;RUE DE LA REPUBLIQUE;inconnue;inconnue;0;;43.882629,0.379025
32459_0400_00012;32459_0400;12;;Rue de la République;32310;32459;Valence-sur-Baïse;;;489335.38;6312786.23;0.378379;43.882606;;;;VALENCE-SUR-BAISE;RUE DE LA REPUBLIQUE;inconnue;inconnue;0;;43.882606,0.378379
32459_0400_00011;32459_0400;11;;Rue de la République;32310;32459;Valence-sur-Baïse;;;489466.51;6312792.54;0.380007;43.882702;;;;VALENCE-SUR-BAISE;RUE DE LA REPUBLIQUE;inconnue;inconnue;0;;43.882702,0.380007
32459_0400_00013;32459_0400;13;;Rue de la République;32310;32459;Valence-sur-Baïse;;;489452.18;6312782.46;0.379833;43.882607;;;;VALENCE-SUR-BAISE;RUE DE LA REPUBLIQUE;inconnue;inconnue;0;;43.882607,0.379833
32459_0400_00023;32459_0400;23;;Rue de la République;32310;32459;Valence-sur-Baïse;;;489318.47;6312780.45;0.378171;43.882549;;;;VALENCE-SUR-BAISE;RUE DE LA REPUBLIQUE;inconnue;inconnue;0;;43.882549,0.378171
32459_0400_00025;32459_0400;25;;Rue de la République;32310;32459;Valence-sur-Baïse;;;489282.48;6312808.22;0.377712;43.882788;;;;VALENCE-SUR-BAISE;RUE DE LA REPUBLIQUE;inconnue;inconnue;0;;43.882788,0.377712
32459_0400_00031;32459_0400;31;;Rue de la République;32310;32459;Valence-sur-Baïse;;;489258.91;6312851.69;0.377401;43.883172;;;;VALENCE-SUR-BAISE;RUE DE LA REPUBLIQUE;inconnue;inconnue;0;;43.883172,0.377401
32459_0400_00032;32459_0400;32;;Rue de la République;32310;32459;Valence-sur-Baïse;;;489275.19;6312901.18;0.377583;43.883622;;;;VALENCE-SUR-BAISE;RUE DE LA REPUBLIQUE;inconnue;inconnue;0;;43.883622,0.377583
32459_0400_00006_bis;32459_0400;6;bis;Rue de la République;32310;32459;Valence-sur-Baïse;;;489441.28;6312793.05;0.379693;43.882699;;;;VALENCE-SUR-BAISE;RUE DE LA REPUBLIQUE;inconnue;inconnue;0;;43.882699,0.379693
32459_0400_00021;32459_0400;21;;Rue de la République;32310;32459;Valence-sur-Baïse;;;489329.89;6312775.85;0.378315;43.882511;;;;VALENCE-SUR-BAISE;RUE DE LA REPUBLIQUE;inconnue;inconnue;0;;43.882511,0.378315
32459_0400_00028;32459_0400;28;;Rue de la République;32310;32459;Valence-sur-Baïse;;;489268.88;6312871.04;0.377517;43.883349;;;;VALENCE-SUR-BAISE;RUE DE LA REPUBLIQUE;inconnue;inconnue;0;;43.883349,0.377517
32459_0400_00035;32459_0400;35;;Rue de la République;32310;32459;Valence-sur-Baïse;;;489350.82;6312989.51;0.378487;43.884439;;;;VALENCE-SUR-BAISE;RUE DE LA REPUBLIQUE;inconnue;inconnue;0;;43.884439,0.378487
32459_0400_00002;32459_0400;2;;Rue de la République;32310;32459;Valence-sur-Baïse;;;489503.98;6312765.73;0.380484;43.882472;;;;VALENCE-SUR-BAISE;RUE DE LA REPUBLIQUE;inconnue;inconnue;0;;43.882472,0.380484
32459_0400_00015;32459_0400;15;;Rue de la République;32310;32459;Valence-sur-Baïse;;;489443.53;6312778.52;0.379727;43.882569;;;;VALENCE-SUR-BAISE;RUE DE LA REPUBLIQUE;inconnue;inconnue;0;;43.882569,0.379727
32459_0400_00016;32459_0400;16;;Rue de la République;32310;32459;Valence-sur-Baïse;;;489312.17;6312799.23;0.378085;43.882716;;;;VALENCE-SUR-BAISE;RUE DE LA REPUBLIQUE;inconnue;inconnue;0;;43.882716,0.378085
32459_0400_00018;32459_0400;18;;Rue de la République;32310;32459;Valence-sur-Baïse;;;489302.42;6312805.67;0.377961;43.882771;;;;VALENCE-SUR-BAISE;RUE DE LA REPUBLIQUE;inconnue;inconnue;0;;43.882771,0.377961
32459_0400_00022;32459_0400;22;;Rue de la République;32310;32459;Valence-sur-Baïse;;;489276.5;6312838.99;0.377625;43.883063;;;;VALENCE-SUR-BAISE;RUE DE LA REPUBLIQUE;inconnue;inconnue;0;;43.883063,0.377625
32459_0400_00024;32459_0400;24;;Rue de la République;32310;32459;Valence-sur-Baïse;;;489272.52;6312849.69;0.377571;43.883158;;;;VALENCE-SUR-BAISE;RUE DE LA REPUBLIQUE;inconnue;inconnue;0;;43.883158,0.377571
32462_1420_00001;32462_1420;1;;Rue de la République;32190;32462;Vic-Fezensac;;;482868.52;6299168.71;0.303748;43.758173;;;;VIC-FEZENSAC;RUE DE LA REPUBLIQUE;inconnue;inconnue;0;;43.758173,0.303748
32462_1420_00006;32462_1420;6;;Rue de la République;32190;32462;Vic-Fezensac;;;482876.41;6299156.65;0.303851;43.758067;;;;VIC-FEZENSAC;RUE DE LA REPUBLIQUE;inconnue;inconnue;0;;43.758067,0.303851
32462_1420_00011;32462_1420;11;;Rue de la République;32190;32462;Vic-Fezensac;;;482912.96;6299155.4;0.304305;43.758067;;;;VIC-FEZENSAC;RUE DE LA REPUBLIQUE;inconnue;inconnue;0;;43.758067,0.304305
32462_1420_00015;32462_1420;15;;Rue de la République;32190;32462;Vic-Fezensac;;;482924.24;6299152.91;0.304446;43.758048;;;;VIC-FEZENSAC;RUE DE LA REPUBLIQUE;inconnue;inconnue;0;;43.758048,0.304446
32462_1420_00022;32462_1420;22;;Rue de la République;32190;32462;Vic-Fezensac;;;482926.07;6299142.95;0.304473;43.757959;;;;VIC-FEZENSAC;RUE DE LA REPUBLIQUE;inconnue;inconnue;0;;43.757959,0.304473
32462_1420_00023;32462_1420;23;;Rue de la République;32190;32462;Vic-Fezensac;;;482962.47;6299139.59;0.304926;43.75794;;;;VIC-FEZENSAC;RUE DE LA REPUBLIQUE;inconnue;inconnue;0;;43.75794,0.304926
32462_1420_00024;32462_1420;24;;Rue de la République;32190;32462;Vic-Fezensac;;;482931.81;6299140.97;0.304545;43.757943;;;;VIC-FEZENSAC;RUE DE LA REPUBLIQUE;inconnue;inconnue;0;;43.757943,0.304545
32462_1420_00028;32462_1420;28;;Rue de la République;32190;32462;Vic-Fezensac;;;482961.0;6299131.86;0.304911;43.75787;;;;VIC-FEZENSAC;RUE DE LA REPUBLIQUE;inconnue;inconnue;0;;43.75787,0.304911
32462_1420_00029;32462_1420;29;;Rue de la République;32190;32462;Vic-Fezensac;;;483005.77;6299126.1;0.305469;43.757832;;;;VIC-FEZENSAC;RUE DE LA REPUBLIQUE;inconnue;inconnue;0;;43.757832,0.305469
32462_1420_00033;32462_1420;33;;Rue de la République;32190;32462;Vic-Fezensac;;;483030.26;6299118.71;0.305776;43.757773;;;;VIC-FEZENSAC;RUE DE LA REPUBLIQUE;inconnue;inconnue;0;;43.757773,0.305776
32462_1420_00035;32462_1420;35;;Rue de la République;32190;32462;Vic-Fezensac;;;483039.43;6299115.84;0.305891;43.75775;;;;VIC-FEZENSAC;RUE DE LA REPUBLIQUE;inconnue;inconnue;0;;43.75775,0.305891
32462_1420_00041;32462_1420;41;;Rue de la République;32190;32462;Vic-Fezensac;;;483055.86;6299110.83;0.306097;43.75771;;;;VIC-FEZENSAC;RUE DE LA REPUBLIQUE;inconnue;inconnue;0;;43.75771,0.306097
32462_1420_00042;32462_1420;42;;Rue de la République;32190;32462;Vic-Fezensac;;;483028.96;6299108.97;0.305764;43.757685;;;;VIC-FEZENSAC;RUE DE LA REPUBLIQUE;inconnue;inconnue;0;;43.757685,0.305764
32462_1420_00044;32462_1420;44;;Rue de la République;32190;32462;Vic-Fezensac;;;483035.03;6299107.43;0.30584;43.757673;;;;VIC-FEZENSAC;RUE DE LA REPUBLIQUE;inconnue;inconnue;0;;43.757673,0.30584
32462_1420_00047;32462_1420;47;;Rue de la République;32190;32462;Vic-Fezensac;;;483082.64;6299101.91;0.306433;43.757638;;;;VIC-FEZENSAC;RUE DE LA REPUBLIQUE;inconnue;inconnue;0;;43.757638,0.306433
32462_1420_00050;32462_1420;50;;Rue de la République;32190;32462;Vic-Fezensac;;;483053.21;6299101.69;0.306068;43.757627;;;;VIC-FEZENSAC;RUE DE LA REPUBLIQUE;inconnue;inconnue;0;;43.757627,0.306068
32462_1420_00054;32462_1420;54;;Rue de la République;32190;32462;Vic-Fezensac;;;483071.71;6299095.72;0.3063;43.757579;;;;VIC-FEZENSAC;RUE DE LA REPUBLIQUE;inconnue;inconnue;0;;43.757579,0.3063
32462_1420_00062;32462_1420;62;;Rue de la République;32190;32462;Vic-Fezensac;;;483126.16;6299078.41;0.306983;43.75744;;;;VIC-FEZENSAC;RUE DE LA REPUBLIQUE;inconnue;inconnue;0;;43.75744,0.306983
32462_1420_00029_bis;32462_1420;29;bis;Rue de la République;32190;32462;Vic-Fezensac;;;482993.9;6299130.18;0.30532;43.757865;;;;VIC-FEZENSAC;RUE DE LA REPUBLIQUE;inconnue;inconnue;0;;43.757865,0.30532
32462_1420_00063_bis;32462_1420;63;bis;Rue de la République;32190;32462;Vic-Fezensac;;;483159.23;6299078.95;0.307393;43.757455;;;;VIC-FEZENSAC;RUE DE LA REPUBLIQUE;inconnue;inconnue;0;;43.757455,0.307393
32462_1420_00003;32462_1420;3;;Rue de la République;32190;32462;Vic-Fezensac;;;482877.13;6299165.97;0.303856;43.758151;;;;VIC-FEZENSAC;RUE DE LA REPUBLIQUE;inconnue;inconnue;0;;43.758151,0.303856
32462_1420_00005;32462_1420;5;;Rue de la République;32190;32462;Vic-Fezensac;;;482891.43;6299162.14;0.304035;43.758121;;;;VIC-FEZENSAC;RUE DE LA REPUBLIQUE;inconnue;inconnue;0;;43.758121,0.304035
32462_1420_00026;32462_1420;26;;Rue de la République;32190;32462;Vic-Fezensac;;;482955.41;6299133.61;0.304841;43.757884;;;;VIC-FEZENSAC;RUE DE LA REPUBLIQUE;inconnue;inconnue;0;;43.757884,0.304841
32462_1420_00030;32462_1420;30;;Rue de la République;32190;32462;Vic-Fezensac;;;482969.43;6299128.57;0.305017;43.757843;;;;VIC-FEZENSAC;RUE DE LA REPUBLIQUE;inconnue;inconnue;0;;43.757843,0.305017
32462_1420_00037;32462_1420;37;;Rue de la République;32190;32462;Vic-Fezensac;;;483048.2;6299113.09;0.306001;43.757728;;;;VIC-FEZENSAC;RUE DE LA REPUBLIQUE;inconnue;inconnue;0;;43.757728,0.306001
32462_1420_00039;32462_1420;39;;Rue de la République;32190;32462;Vic-Fezensac;;;483051.79;6299111.97;0.306046;43.757719;;;;VIC-FEZENSAC;RUE DE LA REPUBLIQUE;inconnue;inconnue;0;;43.757719,0.306046
32462_1420_00046;32462_1420;46;;Rue de la République;32190;32462;Vic-Fezensac;;;483039.02;6299106.18;0.30589;43.757663;;;;VIC-FEZENSAC;RUE DE LA REPUBLIQUE;inconnue;inconnue;0;;43.757663,0.30589
32462_1420_00048;32462_1420;48;;Rue de la République;32190;32462;Vic-Fezensac;;;483044.37;6299104.55;0.305957;43.75765;;;;VIC-FEZENSAC;RUE DE LA REPUBLIQUE;inconnue;inconnue;0;;43.75765,0.305957
32462_1420_00052;32462_1420;52;;Rue de la République;32190;32462;Vic-Fezensac;;;483063.17;6299098.24;0.306193;43.757599;;;;VIC-FEZENSAC;RUE DE LA REPUBLIQUE;inconnue;inconnue;0;;43.757599,0.306193
32462_1420_00055;32462_1420;55;;Rue de la République;32190;32462;Vic-Fezensac;;;483111.83;6299093.02;0.306799;43.757567;;;;VIC-FEZENSAC;RUE DE LA REPUBLIQUE;inconnue;inconnue;0;;43.757567,0.306799
32462_1420_00056;32462_1420;56;;Rue de la République;32190;32462;Vic-Fezensac;;;483079.92;6299093.22;0.306403;43.757559;;;;VIC-FEZENSAC;RUE DE LA REPUBLIQUE;inconnue;inconnue;0;;43.757559,0.306403
32462_1420_00057;32462_1420;57;;Rue de la République;32190;32462;Vic-Fezensac;;;483123.42;6299090.07;0.306944;43.757544;;;;VIC-FEZENSAC;RUE DE LA REPUBLIQUE;inconnue;inconnue;0;;43.757544,0.306944
32462_1420_00059;32462_1420;59;;Rue de la République;32190;32462;Vic-Fezensac;;;483147.58;6299082.57;0.307247;43.757484;;;;VIC-FEZENSAC;RUE DE LA REPUBLIQUE;inconnue;inconnue;0;;43.757484,0.307247
32462_1420_00061;32462_1420;61;;Rue de la République;32190;32462;Vic-Fezensac;;;483151.89;6299081.42;0.307301;43.757475;;;;VIC-FEZENSAC;RUE DE LA REPUBLIQUE;inconnue;inconnue;0;;43.757475,0.307301
32462_1420_00063;32462_1420;63;;Rue de la République;32190;32462;Vic-Fezensac;;;483161.79;6299078.53;0.307425;43.757452;;;;VIC-FEZENSAC;RUE DE LA REPUBLIQUE;inconnue;inconnue;0;;43.757452,0.307425
32462_1420_00065;32462_1420;65;;Rue de la République;32190;32462;Vic-Fezensac;;;483170.88;6299075.77;0.307539;43.75743;;;;VIC-FEZENSAC;RUE DE LA REPUBLIQUE;inconnue;inconnue;0;;43.75743,0.307539
32462_1420_00071;32462_1420;71;;Rue de la République;32190;32462;Vic-Fezensac;;;483189.48;6299070.47;0.307772;43.757388;;;;VIC-FEZENSAC;RUE DE LA REPUBLIQUE;inconnue;inconnue;0;;43.757388,0.307772
32462_1420_00075;32462_1420;75;;Rue de la République;32190;32462;Vic-Fezensac;;;483209.77;6299062.66;0.308027;43.757324;;;;VIC-FEZENSAC;RUE DE LA REPUBLIQUE;inconnue;inconnue;0;;43.757324,0.308027
32462_1420_00025_bis;32462_1420;25;bis;Rue de la République;32190;32462;Vic-Fezensac;;;482972.62;6299137.02;0.305053;43.75792;;;;VIC-FEZENSAC;RUE DE LA REPUBLIQUE;inconnue;inconnue;0;;43.75792,0.305053
32462_1420_00030_bis;32462_1420;30;bis;Rue de la République;32190;32462;Vic-Fezensac;;;482969.03;6299128.69;0.305012;43.757844;;;;VIC-FEZENSAC;RUE DE LA REPUBLIQUE;inconnue;inconnue;0;;43.757844,0.305012
32462_1420_00009;32462_1420;9;;Rue de la République;32190;32462;Vic-Fezensac;;;482905.7;6299157.65;0.304214;43.758085;;;;VIC-FEZENSAC;RUE DE LA REPUBLIQUE;inconnue;inconnue;0;;43.758085,0.304214
32462_1420_00012;32462_1420;12;;Rue de la République;32190;32462;Vic-Fezensac;;;482893.29;6299152.96;0.304062;43.758039;;;;VIC-FEZENSAC;RUE DE LA REPUBLIQUE;inconnue;inconnue;0;;43.758039,0.304062
32462_1420_00013;32462_1420;13;;Rue de la République;32190;32462;Vic-Fezensac;;;482920.22;6299153.15;0.304396;43.758049;;;;VIC-FEZENSAC;RUE DE LA REPUBLIQUE;inconnue;inconnue;0;;43.758049,0.304396
32462_1420_00014;32462_1420;14;;Rue de la République;32190;32462;Vic-Fezensac;;;482898.48;6299151.45;0.304127;43.758027;;;;VIC-FEZENSAC;RUE DE LA REPUBLIQUE;inconnue;inconnue;0;;43.758027,0.304127
32462_1420_00017;32462_1420;17;;Rue de la République;32190;32462;Vic-Fezensac;;;482929.42;6299151.17;0.304511;43.758034;;;;VIC-FEZENSAC;RUE DE LA REPUBLIQUE;inconnue;inconnue;0;;43.758034,0.304511
32462_1420_00025;32462_1420;25;;Rue de la République;32190;32462;Vic-Fezensac;;;482967.33;6299138.09;0.304987;43.757928;;;;VIC-FEZENSAC;RUE DE LA REPUBLIQUE;inconnue;inconnue;0;;43.757928,0.304987
32462_1420_00032;32462_1420;32;;Rue de la République;32190;32462;Vic-Fezensac;;;482987.91;6299122.38;0.305249;43.757793;;;;VIC-FEZENSAC;RUE DE LA REPUBLIQUE;inconnue;inconnue;0;;43.757793,0.305249
32462_1420_00064;32462_1420;64;;Rue de la République;32190;32462;Vic-Fezensac;;;483136.21;6299075.17;0.307109;43.757414;;;;VIC-FEZENSAC;RUE DE LA REPUBLIQUE;inconnue;inconnue;0;;43.757414,0.307109
32462_1420_00067;32462_1420;67;;Rue de la République;32190;32462;Vic-Fezensac;;;483180.68;6299072.43;0.307662;43.757403;;;;VIC-FEZENSAC;RUE DE LA REPUBLIQUE;inconnue;inconnue;0;;43.757403,0.307662
32462_1420_00069;32462_1420;69;;Rue de la République;32190;32462;Vic-Fezensac;;;483183.57;6299072.0;0.307698;43.7574;;;;VIC-FEZENSAC;RUE DE LA REPUBLIQUE;inconnue;inconnue;0;;43.7574,0.307698
32462_1420_00076;32462_1420;76;;Rue de la République;32190;32462;Vic-Fezensac;;;483184.54;6299060.18;0.307715;43.757294;;;;VIC-FEZENSAC;RUE DE LA REPUBLIQUE;inconnue;inconnue;0;;43.757294,0.307715
32462_1420_00078;32462_1420;78;;Rue de la République;32190;32462;Vic-Fezensac;;;483190.51;6299057.98;0.30779;43.757276;;;;VIC-FEZENSAC;RUE DE LA REPUBLIQUE;inconnue;inconnue;0;;43.757276,0.30779
32462_1420_00018_bis;32462_1420;18;bis;Rue de la République;32190;32462;Vic-Fezensac;;;482914.82;6299146.22;0.304332;43.757985;;;;VIC-FEZENSAC;RUE DE LA REPUBLIQUE;inconnue;inconnue;0;;43.757985,0.304332
32462_1420_00024_bis;32462_1420;24;bis;Rue de la République;32190;32462;Vic-Fezensac;;;482928.3;6299142.09;0.304501;43.757952;;;;VIC-FEZENSAC;RUE DE LA REPUBLIQUE;inconnue;inconnue;0;;43.757952,0.304501
32462_1420_00008_a;32462_1420;8;a;Rue de la République;32190;32462;Vic-Fezensac;;;482881.76;6299155.14;0.303918;43.758055;;;;VIC-FEZENSAC;RUE DE LA REPUBLIQUE;inconnue;inconnue;0;;43.758055,0.303918
32462_1420_00029_ter;32462_1420;29;ter;Rue de la République;32190;32462;Vic-Fezensac;;;482993.9;6299130.18;0.30532;43.757865;;;;VIC-FEZENSAC;RUE DE LA REPUBLIQUE;inconnue;inconnue;0;;43.757865,0.30532
32462_1420_00004;32462_1420;4;;Rue de la République;32190;32462;Vic-Fezensac;;;482871.36;6299159.83;0.303787;43.758094;;;;VIC-FEZENSAC;RUE DE LA REPUBLIQUE;inconnue;inconnue;0;;43.758094,0.303787
32462_1420_00007;32462_1420;7;;Rue de la République;32190;32462;Vic-Fezensac;;;482895.97;6299160.65;0.304092;43.758109;;;;VIC-FEZENSAC;RUE DE LA REPUBLIQUE;inconnue;inconnue;0;;43.758109,0.304092
32462_1420_00016;32462_1420;16;;Rue de la République;32190;32462;Vic-Fezensac;;;482904.38;6299149.47;0.304201;43.758011;;;;VIC-FEZENSAC;RUE DE LA REPUBLIQUE;inconnue;inconnue;0;;43.758011,0.304201
32462_1420_00020;32462_1420;20;;Rue de la République;32190;32462;Vic-Fezensac;;;482919.21;6299144.96;0.304387;43.757975;;;;VIC-FEZENSAC;RUE DE LA REPUBLIQUE;inconnue;inconnue;0;;43.757975,0.304387
32462_1420_00021;32462_1420;21;;Rue de la République;32190;32462;Vic-Fezensac;;;482957.13;6299141.33;0.304859;43.757954;;;;VIC-FEZENSAC;RUE DE LA REPUBLIQUE;inconnue;inconnue;0;;43.757954,0.304859
32462_1420_00027;32462_1420;27;;Rue de la République;32190;32462;Vic-Fezensac;;;482978.9;6299134.47;0.305132;43.757899;;;;VIC-FEZENSAC;RUE DE LA REPUBLIQUE;inconnue;inconnue;0;;43.757899,0.305132
32462_1420_00031;32462_1420;31;;Rue de la République;32190;32462;Vic-Fezensac;;;483024.77;6299120.67;0.305707;43.757789;;;;VIC-FEZENSAC;RUE DE LA REPUBLIQUE;inconnue;inconnue;0;;43.757789,0.305707
32462_1420_00038;32462_1420;38;;Rue de la République;32190;32462;Vic-Fezensac;;;483019.17;6299112.53;0.305641;43.757714;;;;VIC-FEZENSAC;RUE DE LA REPUBLIQUE;inconnue;inconnue;0;;43.757714,0.305641
32462_1420_00043;32462_1420;43;;Rue de la République;32190;32462;Vic-Fezensac;;;483063.2;6299108.47;0.306189;43.757691;;;;VIC-FEZENSAC;RUE DE LA REPUBLIQUE;inconnue;inconnue;0;;43.757691,0.306189
32462_1420_00060;32462_1420;60;;Rue de la République;32190;32462;Vic-Fezensac;;;483115.39;6299081.67;0.306848;43.757466;;;;VIC-FEZENSAC;RUE DE LA REPUBLIQUE;inconnue;inconnue;0;;43.757466,0.306848
32462_1420_00068;32462_1420;68;;Rue de la République;32190;32462;Vic-Fezensac;;;483146.74;6299072.04;0.307241;43.757389;;;;VIC-FEZENSAC;RUE DE LA REPUBLIQUE;inconnue;inconnue;0;;43.757389,0.307241
32462_1420_00072;32462_1420;72;;Rue de la République;32190;32462;Vic-Fezensac;;;483169.23;6299065.04;0.307523;43.757333;;;;VIC-FEZENSAC;RUE DE LA REPUBLIQUE;inconnue;inconnue;0;;43.757333,0.307523
32462_1420_00073;32462_1420;73;;Rue de la République;32190;32462;Vic-Fezensac;;;483194.43;6299068.96;0.307834;43.757376;;;;VIC-FEZENSAC;RUE DE LA REPUBLIQUE;inconnue;inconnue;0;;43.757376,0.307834
32462_1420_00077;32462_1420;77;;Rue de la République;32190;32462;Vic-Fezensac;;;483209.77;6299062.66;0.308027;43.757324;;;;VIC-FEZENSAC;RUE DE LA REPUBLIQUE;inconnue;inconnue;0;;43.757324,0.308027
32462_1420_00080;32462_1420;80;;Rue de la République;32190;32462;Vic-Fezensac;;;483196.89;6299056.2;0.30787;43.757262;;;;VIC-FEZENSAC;RUE DE LA REPUBLIQUE;inconnue;inconnue;0;;43.757262,0.30787
32462_1420_00028_bis;32462_1420;28;bis;Rue de la République;32190;32462;Vic-Fezensac;;;482966.16;6299129.68;0.304976;43.757852;;;;VIC-FEZENSAC;RUE DE LA REPUBLIQUE;inconnue;inconnue;0;;43.757852,0.304976
32462_1420_00022_bis;32462_1420;22;bis;Rue de la République;32190;32462;Vic-Fezensac;;;482926.79;6299142.7;0.304482;43.757957;;;;VIC-FEZENSAC;RUE DE LA REPUBLIQUE;inconnue;inconnue;0;;43.757957,0.304482
32462_1420_00058_bis;32462_1420;58;bis;Rue de la République;32190;32462;Vic-Fezensac;;;482969.03;6299128.69;0.305012;43.757844;;;;VIC-FEZENSAC;RUE DE LA REPUBLIQUE;inconnue;inconnue;0;;43.757844,0.305012
32462_1420_00002;32462_1420;2;;Rue de la République;32190;32462;Vic-Fezensac;;;482912.82;6299146.62;0.304307;43.757988;;;;VIC-FEZENSAC;RUE DE LA REPUBLIQUE;inconnue;inconnue;0;;43.757988,0.304307
32462_1420_00008;32462_1420;8;;Rue de la République;32190;32462;Vic-Fezensac;;;482881.09;6299156.83;0.303909;43.75807;;;;VIC-FEZENSAC;RUE DE LA REPUBLIQUE;inconnue;inconnue;0;;43.75807,0.303909
32462_1420_00010;32462_1420;10;;Rue de la République;32190;32462;Vic-Fezensac;;;482887.47;6299154.83;0.303989;43.758054;;;;VIC-FEZENSAC;RUE DE LA REPUBLIQUE;inconnue;inconnue;0;;43.758054,0.303989
32462_1420_00018;32462_1420;18;;Rue de la République;32190;32462;Vic-Fezensac;;;482911.62;6299146.89;0.304292;43.75799;;;;VIC-FEZENSAC;RUE DE LA REPUBLIQUE;inconnue;inconnue;0;;43.75799,0.304292
32462_1420_00019;32462_1420;19;;Rue de la République;32190;32462;Vic-Fezensac;;;482933.01;6299150.05;0.304556;43.758025;;;;VIC-FEZENSAC;RUE DE LA REPUBLIQUE;inconnue;inconnue;0;;43.758025,0.304556
32462_1420_00034;32462_1420;34;;Rue de la République;32190;32462;Vic-Fezensac;;;482995.96;6299119.66;0.30535;43.757771;;;;VIC-FEZENSAC;RUE DE LA REPUBLIQUE;inconnue;inconnue;0;;43.757771,0.30535
32462_1420_00036;32462_1420;36;;Rue de la République;32190;32462;Vic-Fezensac;;;483005.69;6299116.54;0.305472;43.757746;;;;VIC-FEZENSAC;RUE DE LA REPUBLIQUE;inconnue;inconnue;0;;43.757746,0.305472
32462_1420_00040;32462_1420;40;;Rue de la République;32190;32462;Vic-Fezensac;;;483025.87;6299110.41;0.305725;43.757697;;;;VIC-FEZENSAC;RUE DE LA REPUBLIQUE;inconnue;inconnue;0;;43.757697,0.305725
32462_1420_00045;32462_1420;45;;Rue de la République;32190;32462;Vic-Fezensac;;;483076.17;6299103.8;0.306352;43.757653;;;;VIC-FEZENSAC;RUE DE LA REPUBLIQUE;inconnue;inconnue;0;;43.757653,0.306352
32462_1420_00049;32462_1420;49;;Rue de la République;32190;32462;Vic-Fezensac;;;483091.1;6299099.4;0.306539;43.757618;;;;VIC-FEZENSAC;RUE DE LA REPUBLIQUE;inconnue;inconnue;0;;43.757618,0.306539
32462_1420_00051;32462_1420;51;;Rue de la République;32190;32462;Vic-Fezensac;;;483097.0;6299097.64;0.306613;43.757604;;;;VIC-FEZENSAC;RUE DE LA REPUBLIQUE;inconnue;inconnue;0;;43.757604,0.306613
32462_1420_00053;32462_1420;53;;Rue de la République;32190;32462;Vic-Fezensac;;;483104.81;6299095.15;0.306711;43.757584;;;;VIC-FEZENSAC;RUE DE LA REPUBLIQUE;inconnue;inconnue;0;;43.757584,0.306711
32462_1420_00058;32462_1420;58;;Rue de la République;32190;32462;Vic-Fezensac;;;483103.2;6299085.75;0.306695;43.757499;;;;VIC-FEZENSAC;RUE DE LA REPUBLIQUE;inconnue;inconnue;0;;43.757499,0.306695
32462_1420_00066;32462_1420;66;;Rue de la République;32190;32462;Vic-Fezensac;;;483140.98;6299073.45;0.307169;43.7574;;;;VIC-FEZENSAC;RUE DE LA REPUBLIQUE;inconnue;inconnue;0;;43.7574,0.307169
32462_1420_00070;32462_1420;70;;Rue de la République;32190;32462;Vic-Fezensac;;;483157.98;6299068.43;0.307382;43.75736;;;;VIC-FEZENSAC;RUE DE LA REPUBLIQUE;inconnue;inconnue;0;;43.75736,0.307382
32462_1420_00074;32462_1420;74;;Rue de la République;32190;32462;Vic-Fezensac;;;483176.0;6299062.7;0.307608;43.757314;;;;VIC-FEZENSAC;RUE DE LA REPUBLIQUE;inconnue;inconnue;0;;43.757314,0.307608
32462_1420_00043_bis;32462_1420;43;bis;Rue de la République;32190;32462;Vic-Fezensac;;;483068.38;6299106.73;0.306254;43.757677;;;;VIC-FEZENSAC;RUE DE LA REPUBLIQUE;inconnue;inconnue;0;;43.757677,0.306254
32462_1420_00033_bis;32462_1420;33;bis;Rue de la République;32190;32462;Vic-Fezensac;;;483010.96;6299124.59;0.305534;43.75782;;;;VIC-FEZENSAC;RUE DE LA REPUBLIQUE;inconnue;inconnue;0;;43.75782,0.305534
